Place,Phone,Website,Address,City,ZIP,LAT,LON,Type
Lexington B.C. (in Old Town Hall Winery),(810) 359-5012,www.lexingtonbrewery.com,"5475 North Main Street Lexington, MI 48450",Lexington, 48450,43.269038,-82.530356,1
Stormcloud Brewing Company,(231) 352-0118,stormcloudbrewing.com,"303 West Main Street Frankfort, MI 49635",Frankfort, 49635,44.632863,-86.240667,1
Traffic Jam & Snug,(313) 831-9470,www.traffic-jam.com,"4268 Second  Detroit , MI 48201",Detroit , 48201,42.351069,-83.065423,1
Ramshackle Brewing Company,(517) 826-5030,www.ramshacklebrewing.com,"209 East Chicago Street Jonesville , MI 49250",Jonesville , 49250,41.983691,-84.662672,1
Pavlov’s Brewing Company,(734) 802-1410,www.pavlovsbrew.com,"7548 Lewis Ave Temperance, MI",Temperance, ,41.740246,-83.567167,1
Bennett’s Orchard ,,http://www.bennettsorchard.com/,, Ottawa Lake,,41.764152,-83.749387,4
Black Dragon Meadery-Benton Harbor,,www.blackdragonmeadery.com ,911 W Buffalo St,New Buffalo,49117,41.789534,-86.753976,3
Beer Church Brewing Company,(219) 771-0635,www.beerchurchbrewing.com,"24 S Whittaker St New Buffalo , MI 49117",New Buffalo , 49117,41.793222,-86.743118,1
Ghost Isle Brewery,(269) 469-9069,www.ghostislebrewery.com,"17684 U.S. 12 New Buffalo, MI 49117",New Buffalo, 49117,41.799164,-86.725065,1
Dewey Cannon Winery & Brewery Co.,,,9 Elm Street,Three Oaks,49128,41.801023,-86.610484,2
Journeyman Distillery,,,109 Generations Drive,Three Oaks,49128,41.802975,-86.611404,2
"Round Barn Winery, Distillery, Brewery, The",(269) 469-6885,roundbarnwinery.com,"9185 Union Pier Road Union Pier, MI 49129",Union Pier, 49129,41.828067,-86.688106,1
Lehman’s Orchards ,,http://www.lehmansorchard.com/,, Niles,,41.829769,-86.254177,4
J. Tree Cellars,,,115 N. Main Street,Blissfield,49228,41.835599,-83.872135,2
Lehman’s Orchard Brewery & Farmhouse,(269) 362-4063,`,"204 N Red Trail Buchanan, MI 49107",Buchanan, 49107,41.85263,-86.387483,1
Greenbush B.C. Production/Annex,(269) 405-1076,www.greenbushbrewing.com,"5870 Sawyer Road Sawyer, MI 49125",Sawyer, 49125,41.885363,-86.594207,1
Greenbush Brewing Company,(269) 405-1076,www.greenbushbrewing.com,"5885 Sawyer Rd Sawyer, MI 49125",Sawyer, 49125,41.885732,-86.594603,1
Cotton Brewing Company,(517) 902-6608,www.cottonbrewing.com,"626 Oak Street Adrian , MI 49221",Adrian , 49221,41.891361,-84.024634,1
Rice & Barley Taphouse-Brewery/Distillery,(517) 902-6608,www. .com/riceandbarley,"101 E. Maumee Street Adrian, MI 49221",Adrian, 49221,41.898215,-84.034161,1
Old Shore Vineyards,,,264 Browntown Road,Buchanan,49107,41.905823,-86.46161,2
"Round Barn Winery, Distillery, Brewery, The",(800) 716-9463,roundbarnwinery.com,"10983 Hills Road Baroda, MI 49101",Baroda, 49101,41.922268,-86.457869,1
The Round Barn Winery,,,10983 Hills Road,Baroda,49101,41.922268,-86.457869,2
Hillsdale Brewing Company,(517) 212-8182,www. .com/hillsdalebrewing,"25 Hillsdale Street Hillsdale, MI 49242",Hillsdale, 49242,41.924709,-84.631547,1
Flying Otter Vineyard and Winery,,,3402 Chase Road,Adrian,49221,41.928924,-83.955323,2
Gravity Wine,,,10220 Lauer Road,Baroda,49101,41.932775,-86.436799,2
Free Run Cellars,,,10062 Burgoyne Road,Berrien Springs,49103,41.940128,-86.417754,2
Tapistry Brewing,(269) 266-7349,tapistrybrewing.com,"4236 Lake Street Bridgman, MI 49106",Bridgman, 49106,41.942756,-86.556157,1
Transient Artisan Ales,,https://transientartisanales.com/,"4229 Lake Street Bridgman, MI 49106",Bridgman, 49106,41.942998,-86.555709,1
Corey Lake Orchards ,,http://www.coreylakeorchards.com/,, Three Rivers,,41.944272,-85.634622,4
Kelsey Block Brewing Company,(269) 718-3667,www.kelseyblock.com,"41 North Main Street Three Rivers, MI 49093",Three Rivers, 49093,41.944747,-85.63334,1
Haymarket Taproom,(269) 266-5050,www.haymarketbrewing.com,"9301 Red Arrow Highway Bridgman, MI 49106",Bridgman, 49106,41.947155,-86.559477,1
Baroda Founders Wine Cellar,,,8963 Hills Road,Baroda,49101,41.950161,-86.479395,2
Round Barn Brewery & Public House,(269) 326-7059,roundbarnwinery.com/brewery.php,"9151 First Street Baroda, MI 49101",Baroda, 49101,41.952102,-86.485726,1
J. Trees Cellars ,,http://www.treeswines.com/,, Tecumseh,,42.003933,-83.944942,4
Tecumseh Brewing Company,(517) 815-1726,www.tecumsehbrewingco.com,"128 W. Chicago Blvd Tecumseh , MI 49286",Tecumseh , 49286,42.004052,-83.946191,1
Pentamere Winery,,,131 East Chicago Boulevard,Tecumseh,49286,42.004199,-83.944248,2
Grande Mere Inn,(269) 429-3591,grandemereinn.com,"5800 Red Arrow Hwy. Stevensville, MI 49127",Stevensville, 49127,42.012741,-86.528786,1
Watermark Brewing Company,(269) 281-0872,watermarkbrewing.com,"5781 Saint Joseph Ave Stevensville, MI 49127",Stevensville, 49127,42.012867,-86.51963,1
Black Fire Winery,(517) 424-9232,`,"1261 East Munger Road Tecumseh, MI 49286",Tecumseh, 49286,42.027346,-84.000507,1
Cherry Creek Old Schoolhouse Winery (beers served in summer only),(517) 592-4663,`,"11000 Silver Lake Hwy Manitou Beach, MI 49230",Manitou Beach, 49230,42.028504,-84.224166,1
Blue Skies Brewery-Irish Hills,(517) 446-4052,chateauaeronautiquewinery.com,"12000 Pentecost Hwy. Onsted , MI 49265",Onsted , 49265,42.056459,-84.126315,1
Meckley’s Flavor Fruit Farm,(517) 688-3455,`,"11035 S Jackson Rd. Cement City, MI 49233",Cement City, 49233,42.058608,-84.406401,1
Meckley's Flavor Fruit Farm,,,11025 S Jackson Road,Somerset Center,49282,42.058861,-84.406364,2
Meckley’s Cidery ,,http://flavorfruitfarm.com/,, Cement City,,42.070042,-84.330504,4
Sister Lakes Brewing Company,(269) 332-5153,www.sisterlakesbrewing.com,"92500 CR-690 Sister Lakes, MI 49047",Sister Lakes, 49047,42.072265,-86.199739,1
Original Gravity B.C.,(734) 439-7490,ogbrewing.com,"440 County Street Milan, MI 48160",Milan, 48160,42.083982,-83.675178,1
Final Gravity Brewing Company,(269) 436-8052,www.finalgravitybrew.com,"103 North Phelps Street Decatur, MI 49045",Decatur, 49045,42.108767,-85.974547,1
Silver Harbor Brewing Company,(269) 281-7100,www.silverharborbrewing.com,"721 Pleasant Street St. Joseph, MI 49085",St. Joseph, 49085,42.10893,-86.480275,1
White Pine Winery and Vineyards,,,317 State Street,St Joseph,49085,42.109262,-86.481863,2
"Livery, The",(269) 925-8760,liverybrew.com,"190 5'th Street Benton Harbor, MI 49022",Benton Harbor, 49022,42.118507,-86.453702,1
"Distant Whistle Brewhouse, The",(269) 370-7549,`,"118 S Main Street Vicksburg, MI 49087",Vicksburg, 49087,42.119095,-85.532488,1
North Pier Brewing Company,(269) 757-7163,northpierbrewing.com,"670 North Shore Drive Benton Harbor, MI 49022",Benton Harbor, 49022,42.12444,-86.45498,1
Carriage House Ciders,,,920 North Shore Drive,Benton Harbor,49022,42.125122,-86.455033,2
Terrace Hill Vineyards,,,1952 Angling Road,Watervliet,49098,42.147679,-86.267771,2
Salt Springs Brewery,(734) 295-9191,www.saltspringsbrewery.com,"117 South Ann Arbor Street Saline, MI 48176",Saline, 48176,42.166466,-83.781054,1
Barn Brewery Brewers,(269) 299-0482,barnbrewersbrewery.com,"114 North Main Street Lawton, MI 49065",Lawton, 49065,42.168348,-85.849664,1
Big T,(269) 624-1200,www.bigtrestaurant.com,"157 North Main Street Lawton, MI 49065",Lawton, 49065,42.168403,-85.849898,1
Contessa Wine Cellars,,,3235 Friday Road,Coloma,49038,42.16873,-86.306568,2
Stony Lake B.C.,(734) 316-7919,www.stonylakebrewing.com,"477 East Michigan Saline, MI 48176",Saline, 48176,42.170555,-83.773202,1
Karma Vista,,,6991 Ryno Road,Coloma,49038,42.178957,-86.295437,2
Spotted Dog Winery,,,1100 Woodland Drive E,Saline,48176,42.188326,-83.764526,2
Arclight Brewing Company,(269) 332-0718,www.arclightbrewing.com,"544 N. Main Street Watervliet, MI 49098",Watervliet, 49098,42.191048,-86.259392,1
Presidential Brewing Co.,(269) 468-9765,`,"8302 Portage Road Portage , MI 49002",Portage , 49002,42.196525,-85.560831,1
Bella Vino Winery,,,340 Eureka Road,Wayne,48192,42.200019,-83.153758,2
Texas Corners Brewing Company,(269) 870-7724,texascornersbrewingcompany.com,"6970 Texas Drive Texas Township , MI 49009",Texas Township , 49009,42.202415,-85.686147,1
Latitude 42 Brewing Company-Portage,(269) 459-4242,Latitude42brewingco.com,"7842 Portage Road Portage, MI 49106",Portage, 49106,42.20251,-85.560573,1
Latitude 42 Brewing Company,,,7842 Portage Road,Portage,49002,42.20251,-85.560573,2
Warner Vineyards,,,706 South Kalamazoo Street,Paw Paw,49079,42.211856,-85.891492,2
Paw Paw B.C. with General Store,(269) 415-0145,pawpawbrewing.com,"780 South Gremps Street Paw Paw, MI 49079",Paw Paw, 49079,42.213139,-85.894374,1
St. Julian Winery ,,http://www.stjulian.com/,, Paw Paw,,42.217817,-85.891125,4
Peterson and Sons Winery,,,9375 East P Avenue,Kalamazoo,49048,42.217824,-85.444202,2
Ironbark Brewing Company,(517) 784-7988,`,"2610 Kibby Road Jackson, MI 49203",Jackson, 49203,42.218598,-84.437743,1
"Artisan Reserve, Inc.",(734) 992-8331,www.arbrew.com,"36542 Goddard Road Romulus, MI 48174",Romulus, 48174,42.222039,-83.396743,1
Warner Vineyards,(269) 657-3165,www.warnerwines.com,"706 S Kalamazoo Paw Paw, MI 49079",Paw Paw, 49079,42.225594,-85.888842,1
Edelbrau Brewing Company,(734) 926-5351,`,"719 W Ellsworth St., Ste. 2, Ann Arbor, MI 48108",Ann Arbor, 48108,42.228996,-83.750005,1
BraVo! Restaurant and Café,(269) 344-7700,bravokalamazoo.com,"5402 Portage Road Portage, MI 49002",Portage, 49002,42.238929,-85.560231,1
"Unity Vibration Living Kombucha Tea, LLC",(734) 277-4063,unityvibrationkombucha.com,"93 Ecorse Road Ypsilanti, MI 48198",Ypsilanti, 48198,42.239759,-83.597202,1
Unity Vibration,,,93 Ecorse Road,Ypsilanti,48198,42.239759,-83.597202,2
Albion Malleable Brewing Company,(517) 343-2202,https://www.albionmalleable.com/,"420 South Superior Street Albion, MI 49224",Albion, 49224,42.242319,-84.753276,1
Ypsi Alehouse,(734) 477-1555,www.ypsialehouse.com,"124 Pearl Street Ypsilanti , MI 48197",Ypsilanti , 48197,42.242359,-83.614411,1
Cherry Creek Cellars ,,http://www.cherrycreekwine.com/,, Albion,,42.243097,-84.75303,4
Pointless Brewery & Theater,(734) 707-8879,www.pointlessbrew.com,"3014 Packard Road Ann Arbor, MI 48108",Ann Arbor, 48108,42.244629,-83.699476,1
734 Brewing Company,(734) 340-3468,www.734brewing.com/home,"15 East Cross Street  Ypsilanti, MI 48198",Ypsilanti, 48198,42.24612,-83.610757,1
One Well Brewing,(269) 459-9240,onewellbrewing.com,"4213 Portage Street Kalamazoo, MI 49001",Kalamazoo, 49001,42.248592,-85.559175,1
Grand River Brewery,(517) 937-4272,grandrivermarketplace.com,"117 West Louis Glick Hwy. Jackson, MI 49201",Jackson, 49201,42.249366,-84.406674,1
Arbor Brewing Company Microbrewery,(734) 480-2739,arborbrewing.com,"720 Norris Street Ypsilanti, MI 48198",Ypsilanti, 48198,42.249655,-83.61021,1
Pileated Brewing Company,(734) 369-6290,www.pileatedbrewing.com,"2290 S. Industrial Hwy Ann Arbor, MI",Ann Arbor, ,42.253053,-83.734465,1
Biercamp Artisan Sausage & Jerky,(734) 995-2437,bier-camp.com,"1643 South State Street Ann Arbor, MI 48104",Ann Arbor, 48104,42.258679,-83.740111,1
Sleeping Bear Winery,,,2110 N Concord Road,Albion,49224,42.258884,-84.649114,2
Dark Horse Brewing Company,,,511 S Kalamazoo Avenue,Marshall,49068,42.266704,-84.963978,2
Dark Horse Brewing Co.,(616) 781-9940,darkhorsebrewery.com,"511 S. Kalamazoo St. Marshall, MI 49068",Marshall, 49068,42.266709,-84.964015,1
"American Brewers, Inc.",(269) 217-1920,americanbrewers.us,"3408 Miller Rd, Suite 309 Kalamazoo, MI 49001",Kalamazoo, 49001,42.26672,-85.537819,1
Cherry Creek Cellars,,,2199 North Concord Road,Albion,49224,42.269047,-84.649148,2
Wolverine State Brewing Company,(734) 277-7226,wolverinebeer.com,"2019 W Stadium Blvd Ann Arbor, MI 48103",Ann Arbor, 48103,42.269432,-83.774547,1
Bilbo’s Pizza,(269) 382-5544,bilbospizza.com,"3307 Stadium Drive Kalamazoo, MI 49008",Kalamazoo, 49008,42.271602,-85.631225,1
Grand River Brewery-Marshall,(269) 727-9311,`,"101 W Michigan Ave Marshall, MI 49068",Marshall, 49068,42.271952,-84.961049,1
Townies Brewery (Glasshouse Brewing),(734) 637-5421,https://www.facebook.com/towniesA2brewing/,"2350 W. Liberty St Ann Arbor, MI 48103",Ann Arbor, 48103,42.272958,-83.782359,1
Jolly Pumpkin Cafe & Brewery,,,311 S Main Street,Ann Arbor,48104,42.27916,-83.748455,2
Brite Eyes Brewing Co.,(269) 220-5001,briteeyesbrewingco.com,"1156 South Burdick St Kalamazoo, MI 49001",Kalamazoo, 49001,42.279773,-85.582846,1
HOMES Brewery,(734) 954-6637,www.homesbrewery.com,"2321 Jackson Ann Arbor, MI 48103",Ann Arbor, 48103,42.280326,-83.778452,1
Arbor Brewing Company-Ann Arbor,(734) 213-1393,www.arborbrewing.com,"114 E. Washington St. Ann Arbor, MI 48104",Ann Arbor, 48104,42.280374,-83.747811,1
Blue Tractor BBQ & Brewery,(734) 222-4095,bluetractor.net,"207 East Washington Street Ann Arbor, MI 48104",Ann Arbor, 48104,42.280546,-83.746934,1
Grizzly Peak Brewing Company,(734) 741-9325,grizzlypeak.net,"120 W. Washington Ann Arbor, MI 48104",Ann Arbor, 48104,42.280587,-83.748703,1
DeAngelis Cantina del Vino,,,7879 Jackson Road,Ann Arbor,48103,42.284964,-83.800479,2
127 Brewing,(517) 258-1346,https://www.facebook.com/127brewing/,"3090 Shirley Drive Jackson, MI 49201",Jackson, 49201,42.285751,-84.431008,1
Tootsie's Brewery,(517) 522-8167,loneoakvineyards.com,"8400 Ann Arbor RoadGrass Lake, MI 49240",Grass Lake, 49240,42.286072,-84.263759,1
Bell's Brewery,,,8938 Krum Ave.,Galesburg,49053,42.287388,-85.456735,2
Lone Oak Vineyard Estates,,,8400 Ann Arbor Road,Grass Lake,49240,42.287869,-84.263971,2
Tibbs Brewing Company,(877) 762-7397,tibbsbrewing.com,"402 South Burdick Street Kalamazoo, MI 49007",Kalamazoo, 49007,42.288599,-85.583208,1
418 Restaurant,(269) 548-3200,www.kvcc.edu/dining,"418 E. Walnut St., Kalamazoo, MI 49007",Kalamazoo, 49007,42.289047,-85.564109,1
Olde Peninsula Brewpub & Restaurant,(616) 343-2739,www.oldepenkazoo.com,"200 E. Michigan Ave. Kalamazoo, MI 49007",Kalamazoo, 49007,42.291648,-85.581578,1
Husted’s Farm Market ,,http://www.hustedfarmmarket.com/,, Kalamazoo,,42.291707,-85.587229,4
Texas Corners Brewing Company ,,http://www.texascornersbrewingcompany.com/,, Kalamazoo,,42.291707,-85.587229,4
The Merry,,https://www.facebook.com/The-Merry-Hearted-Cidery-1103380713102836/,, Kalamazoo,,42.291707,-85.587229,4
Saugatuck B.C.-Kalamazoo,(269) 382-2739,gonzosbiggdoggbrewing.com,"140 S. Westnedge Kalamazoo, MI 49007",Kalamazoo, 49007,42.291962,-85.589645,1
Final Gravity B.C.-Kalamazoo,(269) 350-5136,www.finalgravitybrew.com,"246 North Burdick Streeet Kalamazoo , MI 49007",Kalamazoo , 49007,42.293179,-85.583191,1
Bell's Brewery Inc. (Kalamazoo B.C.)-Eccentric Cafe-Pub,(269) 382-2338,bellsbeer.com,"355 East Kalamazoo Ave Kalamazoo, MI 49007",Kalamazoo, 49007,42.294916,-85.578873,1
Arcadia Brewing Company Kalamazoo,,,701 E Michigan Avenue,Kalamazoo,49007,42.295079,-85.571537,2
Latitude 42 Brewing Company -Oshtemo,(269) 775-7242,latitude42brewingco.com,"6075 West Main Street,  Kalamazoo, MI 49009",Kalamazoo, 49009,42.295758,-85.669288,1
Jolly Pumpkin Cafe & Brewery-Ann Arbor,(734) 913-2730,jollypumpkin.com,"311 Main Street Ann Arbor, MI 48104",Ann Arbor, 48104,42.30098,-83.697523,1
Sandhill Crane Vineyards,,,4724 Walz Road,Jackson,49201,42.301963,-84.294607,2
Dearborn Brewing,(313) 914-4187,wwww.dearbornbrewing.com,"21930 Michigan Ave Dearborn, MI 48124",Dearborn, 48124,42.306644,-83.243383,1
Chelsea Alehouse Brewery,(734) 475-2337,www.chelseaalehouse.com,"115 South Main Street Chelsea, MI 48118",Chelsea, 48118,42.306857,-84.021113,1
Cognito Brewing,(971) 808-8863,cognitobrewingcompany.com,"142 W Monroe Street Bangor, MI 49013",Bangor, 49013,42.31309,-86.11155,1
"Great Mead hall & Brewing Company, Bangor",,www.greatmeadhall.net,215 W. Monroe,Bangor,49013,42.313457,-86.112525,3
Wax Wings Brewing Company,(269) 459-9494,waxwingsbrewing.com,"3480 Gull Road Kalamazoo, MI 49048",Kalamazoo, 49048,42.315697,-85.538023,1
Downey B.C.-Production & Taproom.,(313) 288-8442,www.downeybrewingcompany.com,"13121 Prospect Dearborn, MI 48126",Dearborn, 48126,42.316446,-83.170974,1
"Jolly Pumpkin Artisan Ales-Production facility and NL Taproom, Dexter",(734) 426-4962,jollypumpkin.com,"2319 Bishop Circle East Dexter, MI 48130",Dexter, 48130,42.323718,-83.878322,1
North Peak Brewing Company,,,2319 Bishop Circle E,Dexter,48130,42.323718,-83.878322,2
Territorial Brewing Company,(269) 282-1694,www.territorialbrewing.com,"1600 Avenue A Springfield, MI 49037",Springfield, 49037,42.325652,-85.258393,1
The Longboard (by Jolly Pumpkin),(313) 914-4510,longboardjp.com,"21931 Michigan Ave, Ste 100 Dearborn, MI 48241",Dearborn, 48241,42.326152,-83.162223,1
Brew Detroit,(313) 974-7366,brewdetroit.com,"1401 Abbott Street Detroit, MI 48216",Detroit, 48216,42.327719,-83.061172,1
Batch Brewing Company,(313) 338-8008,batchbrewingcompany.com,"1400 Porter Street Detroit, MI 48216",Detroit, 48216,42.32849,-83.063319,1
Granite City Food & Brewery-Detroit,(313) 309-9120,`,"100 Renaissance Center Detroit, MI 48243",Detroit, 48243,42.328811,-83.040118,1
Two James Spirits,,,2445 Michigan Avenue,Detroit,48216,42.331149,-83.079473,2
Motor City Brewing Works ,,http://www.motorcitybeer.com/,, Detroit,,42.331551,-83.04664,4
Detroit Beer Co.,(313) 962-1529,detroitbeerco.com,"1529 Broadway Detroit, MI 48226",Detroit, 48226,42.335942,-83.048534,1
Atwater Biergarden & Taproom-Detroit,(313) 877-9205,atwaterbeer.com,"237 Joseph Campau Detroit, MI 48207",Detroit, 48207,42.337292,-83.018489,1
Atwater Brewery,,,237 Joseph Campau Street,Detroit,48207,42.337292,-83.018489,2
Detroit Vineyards,,,1000 Gratiot,Detroit,48207,42.340477,-83.041092,2
"Founders B.C. Detroit (reopened Feb. 6, 2020)",(313) 335-3440,`,"456 Charlotte Street Detroit, MI 48201",Detroit, 48201,42.342996,-83.060573,1
Eastern Market Brewing Company,(313) 502-5165,easternmarket.beer,"2515 Riopelle Detroit, MI 48207",Detroit, 48207,42.346625,-83.038762,1
Brewery Faisan,(313) 290-2987,www.breweryfaisan.com,"1087 Beaufait Street Detroit, MI 48207",Detroit, 48207,42.348413,-83.010352,1
Canton Brew Works,(734) 927-7081,www.cantonbrewworks.com,"8521 N. Lilley Road Canton, MI 48187",Canton, 48187,42.348836,-83.460378,1
Motor City Brewing Works,(313) 832-2700,www.motorcitybeer.com,"470 W. Canfield  Detroit, MI 48201",Detroit, 48201,42.351586,-83.064864,1
Jolly Pumpkin Pizzeria & Brewery-Detroit,(313) 262-6115,www.jollypumpkin.com,"441 W. Canfield #9 Detroit , MI 48201",Detroit , 48201,42.352706,-83.061462,1
Supernatural Brewery and Spirits,(734) 469-2251,www.supernaturalbrewing.com,"36685 Plymouth Road Livonia, MI 48150",Livonia, 48150,42.367343,-83.40614,1
Blue Skies Brewery -Jackson,(517) 569-2132,www.chateauaeronautiquewinery.com,"1849 Rives-Eaton Rd Jackson, MI 49201",Jackson, 49201,42.369059,-84.431585,1
Chateau Aeronautique Winery,,,1849 Rives-Eaton Road,Jackson,49201,42.369059,-84.431585,2
Arbor Brewing Company Brewpub Plymouth,(734) 233-6201,arborbrewing.com,"777 West Ann Arbor Trail Plymouth, MI 48170",Plymouth, 48170,42.369566,-83.468968,1
Liberty Street Brewing Company,(734) 207-9600,LibertyStreetBrewingCompany.com,"149 West Liberty Street Plymouth, MI 48170",Plymouth, 48170,42.379264,-83.461347,1
Atwater in the Park,(313) 344-5104,atwaterinthepark.com,"1175 Lakepointe Grosse Pointe Park, MI 48230",Grosse Pointe Park, 48230,42.38155,-82.939574,1
Mcintosh Cellars ,,http://www.mcintoshorchards.com/,, South Haven,,42.403087,-86.273641,4
Three Blondes Brewing,(269) 872-3911,www.threeblondesbrewing.com,"1875 Phoenix Street South Haven, MI 49090",South Haven, 49090,42.403318,-86.264239,1
South Haven BrewPub,(269) 767-7105,southhavenbrewpub.com,"515 Williams Street South Haven, MI 49090",South Haven, 49090,42.404922,-86.273618,1
The Depot,,,555 Dyckman Avenue,South Haven,49090,42.406402,-86.271875,2
Lucky Girl Brewing Company,(269) 628-0054,luckygirlbrewing.com,"34016 M-43 Paw Paw, MI 49079",Paw Paw, 49079,42.411597,-85.451184,1
Brewery at Schoolcraft (College),(734) 462-4400,`,"18600 Haggerty Road Livonia, MI 48152",Livonia, 48152,42.419317,-83.428685,1
Granite City Food & Brewery-Northville,(248) 662-3400,`,"39603 Traditions Drive Northville, MI 48168",Northville, 48168,42.422097,-83.433639,1
Northville Winery and Brewing Company ,,http://www.thenorthvillewinery.com/,, Northville,,42.431081,-83.483226,4
North Center Brewing Company,(248) 470-5700,northcenterbrewing.com,"410 N. Center Street Northville, MI 48167",Northville, 48167,42.434319,-83.483109,1
Northville Brewing Company,(248) 320-6507,www.thenorthvillewinery.com,"630 Old Baseline Road Northville, MI 48167",Northville, 48167,42.437338,-83.48617,1
Old Mill Brewpub & Grill,(269) 204-6601,www.oldmillbrew.com,"717 E. Bridge Street Plainwell, MI 49080",Plainwell, 49080,42.442939,-85.63226,1
Boss Cider Company,(517) 878-6044,www.bosscider.com,"139 S Main St., Leslie, MI 49251",Leslie, 49251,42.449571,-84.431925,1
Witch's Hat B.C.,(248) 486-2595,www.witchshatbrewing.com,"601 South Lafayette Street South Lyon , MI 48178",South Lyon , 48178,42.454591,-83.650356,1
Jamex Brewing Company,(586) 944-2030,www.jamexbrewing.com,"21721 Harper Avenue St. Clair Shores, MI 48080",St. Clair Shores, 48080,42.455934,-82.912414,1
B. Nektar meadery,,,1505 Jarvis Suite B  ,Ferndale,48220,42.456842,-83.113941,2
B. Nektar Meadery,(313) 744-6323,www.bnektar.com,"1511 Jarvis Ferndale, MI 49220",Ferndale, 49220,42.45699,-83.113582,1
"B. Nektar Meadery, Ferndale    ",,www.bnektar.com,1511 Jarvis St,Ferndale,48220,42.45699,-83.113582,3
Third Monk Brewing Company,(248) 278-6366,http://www.thirdmonkbrewingco.com/,"228 South Lafayette South Lyon, MI 48178",South Lyon, 48178,42.458154,-83.651378,1
Woodward Avenue Brewers,(248) 546-3696,thewabsite.com,"22646 Woodward Ave Ferndale, MI 48220",Ferndale, 48220,42.459601,-83.13343,1
Schramm's meadery,,,327 W. 9 Mile Road,Ferndale,48220,42.460254,-83.138646,2
Schramm's Mead-Ferndale,,www.SchrammsMead.com,327 W. 9 Mile Road Ferndale,Ferndale,48220,42.460254,-83.138646,3
Liquid Note Brewing,(269) 207-6844,`,"119 East Allegan Street Otsego, MI 49078",Otsego, 49078,42.460393,-85.695726,1
B. Nektar Meadery ,,http://www.bnektar.com/,, Ferndale,,42.460592,-83.134648,4
Valentine Distilling,,,161 Vester Ave,Ferndale,48220,42.461612,-83.133994,2
Brook’s Brewing -Ferndale,(586) 884-4741,www.bbrewing.com,"22925 Woodward Ave Ferndale, MI 48220",Ferndale, 48220,42.461816,-83.135781,1
Cellarmen’s ,,http://cellarmens.com/,, Hazel Park,,42.462014,-83.103569,4
Farmington Brewing Company,(248) 957-9543,www.FBCbrewing.com,"33336 Grand River Avenue Farmington, MI 48336",Farmington, 48336,42.464954,-83.376037,1
Copper Hop Brewing Company,(586) 204-7752,www.TheCopperHop.com,"23401 Greater Mack Ave St. Clair Shores, MI 48080",St. Clair Shores, 48080,42.465856,-82.898053,1
Urbanrest Brewing Company,(586) 945-5121,www.urbanrest.com,"2615 Wolcott Ferndale, MI 48220",Ferndale, 48220,42.467993,-83.127419,1
Mcintosh Cider,(269) 637-7922,www.mcintoshorchards.com,"6431 107th Ave South Haven, MI 49090",South Haven, 49090,42.469424,-86.16999,1
McIntosh Apple Orchards,,,6431 107th Avenue,South Haven,49090,42.469424,-86.16999,2
Cellarmen's-Hazel Park,,www.cellarmens.com,24310 John R Rd,Hazel Park,48030,42.470768,-83.104294,3
Dragon’s Landing,(586) 218-8090,www.dragonmead.com,"24409 Jefferson Avenue St. Clair Shores, MI 48080",St. Clair Shores, 48080,42.471222,-82.888779,1
Red Hat Micro-Winery,,,24601 Jefferson Avenue,St Clair Shores,48080,42.473331,-82.889264,2
Baffin Brewing Company,(586) 218-7990 ,www.baffinbrewing.com/,"25113 Jefferson Ave. St. Clair Shores, MI 48081",St. Clair Shores, 48081,42.477697,-82.889413,1
Ascension Brewing Company,(248) 308-2093,www.ascension.beer,"42000 Grand River Avenue Novi, MI 48375",Novi, 48375,42.478327,-83.460978,1
ROAK Brewing Company,(248) 268-8780,www.roakbrewing.com,"330 East Lincoln Street Royal Oak, MI 48067",Royal Oak, 48067,42.483418,-83.142056,1
Lily’s Seafood Rest. & Brewery,(248) 591-5459,lilyseafood.com,"410 S. Washington Royal Oak, MI 48067",Royal Oak, 48067,42.487138,-83.146653,1
River Rouge Brewing Company,(248) 802-0555,www.riverrougebrew.com,"406 East 4th Street Royal Oak, MI 48067",Royal Oak, 48067,42.487229,-83.140206,1
Royal Oak Brewery,(248) 544-1141,royaloakbrewery.com,"215 E. Fourth St. Royal Oak, MI 48067",Royal Oak, 48067,42.487386,-83.142872,1
Royal Oak Winery,,,325 East Fourth Street,Royal Oak,48067,42.487415,-83.141655,2
Dragonmead Microbrewery,,www.dragonmead.com,14600 E. 11 Mile Rd,Warren,48089,42.492825,-82.975259,3
Dragonmead Microbrewery,(586) 776-9428,dragonmead.com,"14600 E. Eleven Mile Rd.  Warren, MI 48089",Warren, 48089,42.493111,-82.974373,1
Kuhnhenn Brewing Co. ,,http://www.kbrewery.com/,, Warren,,42.493257,-83.006275,4
Cadillac Straits Brewing Company & Homebrew Supplies,(248) 850-7673,cadillacstraits.com,"27651 John R. Rd. Madison Hts. , MI 48071",Madison Hts. , 48071,42.495183,-83.105562,1
Tujax Tavern,(269) 623-8310,www. .com,"103 South Grove Street Delton, MI 49046",Delton, 49046,42.496258,-85.407991,1
Draught Horse Brewery,(248) 617-3000,www.draughthorsebrewery.com,"57721 Grand River Ave Lyon Township, MI 48165",Lyon Township, 48165,42.513427,-83.623884,1
Brewery Vivant,,,925 Cherry Street,Grand Rapids,49506,42.514752,-84.658783,2
Tantrick Brewing Co,(269) 512-7016,https://tantrickbrewing.com/,"633 Hooker Rd, Allegan, MI 49010",Allegan, 49010,42.52176,-85.828766,1
Drafting Table Brewing Company,(248) 956-7279,draftingtablebeer.com,"49438 Pontiac Trail Wixom, MI 48393",Wixom, 48393,42.524404,-83.536571,1
Kuhnhenn Brewing Company-Warren,(586) 979-8361,www.kbrewery.com,"5919 Chicago Rd. Warren, MI 48092",Warren, 48092,42.527717,-83.04681,1
Brewery Becker,(734) 678-3238,brewerybecker.com,"500 West Main Street Brighton, MI 48116",Brighton, 48116,42.529522,-83.785481,1
Black Lotus Brewing Company,(248) 577-1878,blacklotusbrewingco.com,"1 E. 14 Mile Road Clawson, MI 48017",Clawson, 48017,42.533563,-83.141428,1
Waypost Brewing Co.,(269) 496-5096,www.waypostbeer.com,"1630 Blue Star Hwy. Fennville, MI 49408",Fennville, 49408,42.536319,-86.211151,1
War Water Brewery,(810) 326-2084,warwaterbrewery.com,"201 N. Riverside Saint Claire, MI 48070",Saint Claire, 48070,42.543023,-83.223906,1
Griffin Claw Brewing Company,(248) 712-4050,griffinclawbrewingcompany.com,"575 S. Eton St. Birmingham, MI 48009",Birmingham, 48009,42.543457,-83.195464,1
Griffin Claw Brewing Company ,,http://www.griffinclawbrewingcompany.com/,, Birmingham,,42.546701,-83.211319,4
Great Baraboo Brewing Company,(586) 79-,www.greatbaraboo.com,"35905 Utica Road Clinton Township, MI 48035",Clinton Township, 48035,42.560237,-82.965332,1
Charlotte Brewing Company (Eaton Pub & Grill),(517) 543-8882,eatonpub.com,"214 South Cochran Avenue Charlotte, MI 48813",Charlotte, 48813,42.56104,-84.835997,1
Granite City Food & Brewery-Troy,(248) 519-1040,www.gcfb.net,"699 W Big Beaver Road Troy, MI 48084",Troy, 48084,42.561256,-83.180966,1
Kuhnhenn B.C. Taproom/Production-Clinton Township,(586) 231-0249,www. .com/KuhnhennClinton,"36000 Groesbeck Highway Clinton Township, MI 48035",Clinton Township, 48035,42.562204,-82.917516,1
Country Mill Winery ,,http://www.countrymill.com/,, Charlotte,,42.563737,-84.835579,4
"Superior Lakes, Harrison Twp.",,www.superiorlakes.com,36285 Jefferson,Harrison Township,48045,42.564755,-82.844369,3
Virtue Cider,,,2170 62nd Street,Fennville,49408,42.576187,-86.151648,2
Block Brewing Brighton,(810) 206-3990,blockbrewingbrighton.com,"1840 South Old US 23 Brighton , MI 48114",Brighton , 48114,42.57722,-83.753286,1
CJ’s Brewing Company,(248) 366-7979,cjsbrewingcompany.com,"8115 Richardson Road  Commerce Twp., MI 48382",Commerce Twp., 48382,42.577646,-83.443695,1
Fenn Valley Vineyards,,,6130 122nd Avenue,Fennville,49408,42.578441,-86.144087,2
BAD Brewing Company,(517) 676-7664,badbrewing.com,"440 South Jefferson Mason, MI 48854",Mason, 48854,42.578763,-84.443254,1
Filipo Marc Winery,,,39085 Garfield,Clinton Township,48038,42.584328,-82.952038,2
The Country Mill,,,4648 Otto Road,Charlotte,48813,42.585575,-84.797799,2
Rod & Rifle Spirits,,,14 Belleview,Mt Clemens,48043,42.58626,-82.883715,2
River's Edge Brewing Company,(248) 685-1625,riversedgebrew.com,"125 South Main Milford, MI 48381",Milford, 48381,42.58675,-83.600416,1
Chateau Valerio Winery,,,39085 Moravian Drive,Clinton Township,48036,42.588867,-82.914039,2
Kickstand Brewing Company,(248) 301-5941,www. .com,"3050 Union Lake Road Unit 4ACommerce Township, MI 48382",Commerce Township, 48382,42.590813,-83.445983,1
Crane’s Pie Pantry ,,http://cranespiepantry.com/,, Fennville,,42.594105,-86.104596,4
Fenn Valley Vineyards ,,https://www.fennvalley.com/,, Fennville,,42.594105,-86.104596,4
Vander Mill ,, Grand Rapids Virtue Cider ,, Fennville,,42.594105,-86.104596,4
Howell's MainStreet Winery,,,201 W. Grand River,Howell,48843,42.595779,-84.0006,2
Aberrant Ales,(517) 518-8699,www.aberrantales.com,"219 West Grand River Howell , MI 48843",Howell , 48843,42.595945,-84.000154,1
Block Brewing Company,(517) 540-0300,blockbrewingcompany.com,"1140 S. Michigan Howell, MI 48843",Howell, 48843,42.616791,-83.925828,1
Hartland Brewing Company,(248) 842-3158,hartlandbrewco.com,"1836 N Old US 23  Howell , MI 48843",Howell , 48843,42.618245,-83.749977,1
Saugatuck B.C.,(269) 857-7222,saugatuckbrewing.com,"2948 Blue Star Hwy. Douglas, MI 49406",Douglas, 49406,42.631149,-86.21202,1
Eternity Brewing Company,(517) 295-4904,www.eternitybrewing.com,"4060 E Grand River Avenue Howell, MI 48843",Howell, 48843,42.632234,-83.994301,1
Saugatuck Brewing Company,,,2948 Blue Star Highway,Fennville,49408,42.632284,-86.211993,2
Sherwood B.C.,(586) 532-9669,sherwoodbrewing.com,"45689 Hayes Road Shelby Township, MI 48315",Shelby Township, 48315,42.632342,-82.974993,1
Fillmore 13 Brewery,(248) 977-3972,fillmore13brewery.com,"7 N. Saginaw Steet Pontiac , MI 48342",Pontiac , 48342,42.636885,-83.292067,1
Exferimentation Brewing Company,(248) 648-1377,exferimentationbrewing.com,"7 N. Saginaw Street Pontiac, MI 48342",Pontiac, 48342,42.636992,-83.292346,1
Cap N Cork Brewing Company,(586) 217-3576,capncorkhomebrew.com,"16776 21 Mile Rd Macomb, MI 48044",Macomb, 48044,42.642139,-82.954684,1
Saugatuck Brewing Company ,,http://saugatuckbrewing.com/,, Douglas,,42.643358,-86.200593,4
Dimes Brewhouse,(000) 000-0000,www.dimesbrewhouse.com,"145 North Bridge Dimondale , MI 48221",Dimondale , 48221,42.645593,-84.648949,1
Walldorff Brewpub and Bistro,(269) 945-4400,walldorffbrewpub.com,"105 East State Street Hastings, MI 49058",Hastings, 49058,42.648741,-85.285481,1
Mitten Brewing Company,(269) 455-5719,www.mittenbrewing.com/saugatuck,"329 Water Street Saugatuck, MI 49453",Saugatuck, 49453,42.656891,-86.205241,1
Rustic Leaf Brewing Company,(248) 599-9933,rusticleafbrewingcompany.com,"7200 Highland Road Waterford, MI 48327",Waterford, 48327,42.661354,-83.428351,1
Glass Creek Winery,(269) 948-2752,`,"450 N Whitmore Road Hastings, MI 49058",Hastings, 49058,42.662098,-85.406708,1
Guardian Brewing Company,(269) 543-2238,guardianbrewingco.com,"3657 63'rd Street Saugatuck, MI 49453",Saugatuck, 49453,42.669696,-86.164144,1
"Openroad Brewery, The",(616) 293-7855,www.openroadbrewing.com,"128 South Main Street Wayland, MI 49348",Wayland, 49348,42.673112,-85.643318,1
Fieldstone Winery,,,223 South Main Street,Rochester,48307,42.67481,-83.133493,2
Carriage House Cellars,,,10411 Clyde Road,Fenton,48430,42.677014,-83.753776,2
Brooks Brewing,(586) 884-4741,Bbrewing.com,"52033 Van Dyke Shelby Township, MI 48316",Shelby Township, 48316,42.677162,-83.034252,1
Rochester Mills Beer Co.,(248) 650-5080,rochestermillsbeerco.com,"400 Water Street Rochester , MI 48308",Rochester , 48308,42.680471,-83.131208,1
Fieldstone Hard Cider ,,http://fieldstonehardcider.com/,, Rochester,,42.680588,-83.133821,4
Michigan Brewing Works,(517) 655-7777,www.michiganbrewingworks.com,"3435 Dietz Road Williamston, MI 48895",Williamston, 48895,42.680848,-84.229013,1
Michigan Brewing Works,,,3435 Dietz Road,Williamston,48895,42.680848,-84.229013,2
Rochester Mills Production Brewery and Public Taproom,(248) 377-3130,`,"3275 Lapeer West Road Auburn Hills, MI 48326",Auburn Hills, 48326,42.688393,-83.241112,1
Parker’s Hilltop Brewery & Spirits,(248) 383-8444,hilltopbrew.com,"6110 N. Dixie Highway Clarkston, MI 48346",Clarkston, 48346,42.710335,-83.407185,1
EagleMonk Pub & Brewery,(517) 881-4605,www.eaglemonkbrewing.com,"4906 W. Mt. Hope Hwy. Lansing , MI 48917",Lansing , 48917,42.712062,-84.652197,1
Blue Pike Cantina,(810) 765-4200,`,"152 S Water Street Marine City, MI 48039",Marine City, 48039,42.718296,-82.490857,1
Brown Iron Brewhouse,(586) 697-3300,www.BrownIron.com,"57695 Van Dyke Road Washington, MI 48094",Washington, 48094,42.719201,-83.035742,1
Sleepwalker Spirits & Ales,(517) 719-7563,www.drinksleepwalker.com,"1101 S Washington Ave Lansing , MI 48910",Lansing , 48910,42.721725,-84.552102,1
Mountain Town Brewing Company,(989) 400-4666,mtpleasantbrew.com,"3068 Jen's Way Mount Pleasant, MI 48858",Mount Pleasant, 48858,42.724906,-83.900854,1
5 Lakes Brewing Company,(616) 359-9555,5lakesbrewing.com,"1638 142nd Ave Dorr, MI 49323",Dorr, 49323,42.724967,-85.706122,1
Ellison Brewery & Spirits,(517) 203-4904,www.ellisonbrewing.com,"4903 Dawn Ave. East Lansing, MI 48823",East Lansing, 48823,42.72509,-84.451279,1
Lansing Brewing Company ,,http://www.lansingbrewingcompany.com/,, Lansing,,42.733771,-84.55538,4
Arcadia SmokeHouse-Lansing,(517) 482-2739,www. .com/arcadialansing,"2101 E. Michigan Avenue Lansing , MI  48912",Lansing , 48912,42.733815,-84.520709,1
Ellison Brewery and Spirits ,,http://www.ellisonbrewing.com/,, East Lansing,,42.735542,-84.485247,4
Harper’s Restaurant & Brewpub,(517) 333-4040,harpersbrewpub.com,"131 Albert  East Lansing, MI 48823",East Lansing, 48823,42.736115,-84.4835,1
Lansing Brewing Company,(517) 371-2600,www.lansingbrewingcompany.com,"518 East Shiawassee Street Lansing, MI 48192",Lansing, 48192,42.736842,-84.545509,1
Sanctuary Brewery @Sanctuary Spirits,(517) 925-1930,`,"902 East Saginaw Grand Ledge, MI 48837",Grand Ledge, 48837,42.740779,-84.735703,1
Burgdorf's Winery,,,5635 Shoeman Road,Haslett,48840,42.748022,-84.347683,2
Ozone’s Brewhouse,(517) 999-2739,www.ozonesbrewhouse.com,"305 Beaver Street Lansing, MI 48906",Lansing, 48906,42.751012,-84.549052,1
BrickHaven Brewing Company,(517) 925-1319,`,"200 East Jefferson Street Grand Ledge , MI 48837",Grand Ledge , 48837,42.75205,-84.745453,1
Tulip City Brewstillery,"
(616) 834-5661",https://www.facebook.com/tulipcitybrewstillery/,"430 W 17th Street, Suite 27 Holland , MI 49423",Holland , 49423,42.781637,-86.128375,1
Bam! Entertainment Center,(616) 392-7086,gobamgo.com,"478 East 16th Street Holland, MI 49493",Holland, 49493,42.783096,-86.086095,1
Fourth Coast Ciderworks ,,https://fourthcoastciderworks.com/,, Lake Orion,,42.784475,-83.239661,4
Fourth Coast Ciderworks ,,https://fourthcoastciderworks.com/,, Lake Orion,,42.784475,-83.239661,4
New Holland B.C.-Pub,(616) 355-6422,newhollandbrew.com,"66 East 8'th Street Holland, MI 49423",Holland, 49423,42.790105,-86.104115,1
New Holland Brewing,,,66 East 8th Street ,Holland,49423,42.790105,-86.104115,2
Our Brewing Company,(231) 838-0638,ourbrewingcompany.com,"76 East 8th Street Holland, MI 49423",Holland, 49423,42.79019,-86.103754,1
Big Lake Brewing Company,(616) 796-8888,http://biglakebrewing.com,"13 West 7th Street Holland , MI 49423",Holland , 49423,42.791494,-86.107916,1
Lynchpin Beer Co. (in The Laundry),(810) 629-8852,lynchpinbeer.com,"125 W. Shiawassee Fenton, MI 48430",Fenton, 48430,42.793499,-83.704815,1
Brewery 4 Two 4,(616) 377-7773,www.brewery4two4.com,"321 Douglas Ave Holland, MI 49424",Holland, 49424,42.797728,-86.123822,1
Spicer Orchards Winery ,,http://www.spicerorchards.com/,, Fenton,,42.797806,-83.70495,4
Northern Oak Brewery,(248) 892-2661,www.northernoakbrewery.com,"806 S. Saginaw Holly, MI 48442",Holly, 48442,42.800263,-83.62738,1
EB Coffee & Pub,(616) 891-7700,ebcoffeepub.com,"8980 North Rogers Court Caledonia, MI 49316",Caledonia, 49316,42.801403,-85.508431,1
"Village Winery (Romeo, Michigan)",,,134 W. St. Clair Street,Romeo,48065,42.802616,-83.015807,2
"Great Legs Winery, Brewery, Distillery",(616) 916-9729,www.greatlegswinery.com,"332 East Lakewood Boulevard Holland, MI 49424",Holland, 49424,42.804781,-86.12385,1
Starr Craft Brewery,(586) 430-1564,www. .com/Starrbrew,"69209 N. Forest Ave Richmond, MI 48062",Richmond, 48062,42.811554,-82.756373,1
Alebird Taphouse & Brewery,(616) 583-8457,www.alebird.com,"2619 84th St. SW Byron Center, MI 49315",Byron Center, 49315,42.812301,-85.728443,1
Tripelroot,(616) 953-0050,tripelroot.com,"146 East Main Zeeland, MI 49464",Zeeland, 49464,42.812435,-86.028817,1
New Holland B.C.-Production Facility,(616) 355-6422,`,"684 Commerce Court Holland, MI 49424",Holland, 49424,42.817665,-86.113302,1
Seven Lakes Vineyard & Winery,,,1111 Tinsman Rd,Fenton,48430,42.819823,-83.683478,2
Gravel Capital Brewing,(248) 628-3379,gravelcapital.com,"14 N Washington St,  Oxford, MI 48371",Oxford, 48371,42.825178,-83.265525,1
Hopland Brewstillery,(616) 546-1313,www.hoplandbrewstillery.com,"977 Butternut Ave, Ste. 4 Holland, MI 49424",Holland, 49424,42.827361,-86.136477,1
HomeGrown Brewing Company,(248) 800-4244,https://www.homegrownbrewco.com,"28 North Washington Street Oxford, MI 48371",Oxford, 48371,42.828109,-83.267888,1
Railtown Brewing Company,(616) 881-2364,railtownbrewing.com,"3555 68th Street SE Dutton, MI 49316",Dutton, 49316,42.841491,-85.575739,1
Looking Glass Brewing Company,(517) 618-1373,`,"115 North Bridge Street,  Dewitt, MI 48820",Dewitt, 48820,42.842436,-84.569224,1
Blake’s Hard Cider Co. ,,http://www.blakeshardcider.com/,, Armada,,42.844196,-82.884372,4
Blake Hard Cider Co.,(586) 784-9463,`,"17985 Armada Center Rd Armada, MI 48005",Armada, 48005,42.849425,-82.951249,1
Blake's Hard Cider Co.,,,17985 Armada Center Road,Armada,48005,42.849425,-82.951249,2
Fenton Winery & Brewery,(810) 373-4194,fentonbrewery.com,"1370 North Long Lake Road Fenton, MI 48430",Fenton, 48430,42.851556,-83.704709,1
Hudsonville Winery,,,3768 Chicago Drive,Hudsonville,49426,42.862155,-85.875762,2
Hudsonville Pike 51 Brewing Company,(616) 662-4589,www.pike51.com,"3768 Chicago Drive Husdonville, MI 49426",Husdonville, 49426,42.862202,-85.875595,1
White Flame Brewing Company,(616) 822-8269,whiteflamebrewing.com,"5234 36th Avenue Hudsonville, MI 49426",Hudsonville, 49426,42.864805,-85.871062,1
Farmhaus Cider Co. ,,http://farmhauscider.com/,, Hudsonville,,42.870889,-85.865235,4
ConfluxCity Brewing Company,(517) 526-9091,confluxcitybrew.com,"110 N Water Street Portland, MI 48875",Portland, 48875,42.871424,-84.903215,1
Jaden James Brewery at Cascade Winery,(616) 656-4665,cascadecellars.com,"4665 Broadmoor Kentwood, MI 49512",Kentwood, 49512,42.8791,-85.561371,1
Cascade Winery,,,4665 Broadmoor,Grand Rapids,49512,42.880283,-85.562714,2
Kitzingen Brewery,(616) 301-1811,www.Kitzingen-Brewery.com,"1760 44th St SW Suite 8 Wyoming, MI 49509",Wyoming, 49509,42.884396,-85.708295,1
Osgood Brewing Company,(616) 432-3881,www.osgoodbrewing.com,"4051 Chicago Drive SW. Grandville, MI 49418",Grandville, 49418,42.90933,-85.764203,1
Arvon Brewing Co.-Production Facility Only,(616) 224-0086,www.arvonbrewingco.com,"3057 Broadway Ave SW Grandville, MI 49418",Grandville, 49418,42.90944,-85.772051,1
Broad Leaf Local Beer (Brewery Vivant),(616) 803-0602,broadleafbeer.com,"2885 Lake Eastbrook Boulevard, Kentwood, MI 49512",Kentwood, 49512,42.911176,-85.575094,1
Schmohz Brewing Company,(616) 949-0860,www.schmohz.com,"2600 Patterson Ave. SE Grand Rapids, MI 49546",Grand Rapids, 49546,42.9156,-85.549151,1
Brass Ring Brewing,(616) 460-1587,www.brassringbrewing.com,"2404 Eastern Ave. SE Grand Rapids, MI 49507",Grand Rapids, 49507,42.919874,-85.647415,1
TwoGuys Brewing,(616) 881-2260,twoguys-brewing.com,"2356 Porter St SW Wyoming, MI 49519",Wyoming, 49519,42.921161,-85.724218,1
Thornapple Brewing Company,(616) 288-6907,www.thornapplebrewing.com,"6262 28th St SE, Cascade Center Mall Cascade, MI 49546",Cascade, 49546,42.922011,-85.51328,1
Harsens Island Brewery,(810) 937-2937,`,"808 Gratiot Blvd. Marysville, MI 48040",Marysville, 48040,42.922466,-82.471511,1
New Union Brewery,(616) 319-7171,`,"400 West Main Street Lowell, MI 49331",Lowell, 49331,42.933078,-85.343988,1
Sunshine Meadery,,www.sunshinemead.com,501 Ottawa St,Lowell,49331,42.933601,-85.341855,3
Painted Turtle Hard Cider ,,http://www.paintedturtlehardcider.com/,, Lowell,,42.933601,-85.341855,4
Big Boiler Brewing,(616) 987-3155,bigboilerbrewing.com,"318 East Main Street Lowell, MI 49331",Lowell, 49331,42.934629,-85.336553,1
Arktos Meadery,,www.arktosmeadery.com,1251 Century Ave SW,Grand Rapids,49503,42.940209,-85.678927,3
Redwood Steakhouse and B.C.,(810) 233-8000,theredwoodlodge.com,"5304 Gateway Center Flint , MI 48507",Flint , 48507,42.946067,-83.720419,1
Founders Brewing Co.,,,235 Grandville Ave. SW ,Grand Rapids,49503,42.951191,-85.677308,2
Acme Cider Co. ,,http://www.acmecider.com/,, Ada,,42.954714,-85.487952,4
Sietsema Orchards ,,http://www.sietsemaorchards.com/,, Ada,,42.954714,-85.487952,4
Harmony Brewing Company,(616) 459-9333,Harmonybeer.com,"1551 Lake Dr. SE Grand Rapids, MI 49506",Grand Rapids, 49506,42.955013,-85.630668,1
Gravel Bottom Craft Brewery & Supply.,(616) 920-7398,www.gravelbottom.com,"452 Ada Drive Ada, MI 49301",Ada, 49301,42.95524,-85.484587,1
Elk Brewing Company,(616) 238-5227,elkbrewing.com,"700 Wealth Street SE Grand Rapids, MI 49503",Grand Rapids, 49503,42.95563,-85.651754,1
East West Brewing Company,(616) 288-5250,`,"1400 Lake Drive SE Grand Rapids, MI 49862",Grand Rapids, 49862,42.957318,-85.634947,1
Brew Works of Fremont,(231) 335-5105,www.thecommonsoffremont.com,"5885 S.Warner Fremont, MI 49506",Fremont, 49506,42.957848,-85.642426,1
Founders Brewing Company,(616) 776-1195,foundersbrewing.com,"235 Grandville Ave S W  Grand Rapids, MI 49503",Grand Rapids, 49503,42.958774,-85.673412,1
Brewery Vivant,(616) 719-1604,www.breweryvivant.com,"925 Cherry Street SE Grand Rapids, MI 49506",Grand Rapids, 49506,42.959888,-85.645962,1
Grand Rapids Brewing Company,(616) 458-7000,www.grbrewingcompany.com,"1 Ionia Ave SW Grand Rapids, MI 49503",Grand Rapids, 49503,42.963111,-85.670381,1
Robinette Cellars ,,https://robinettes.com/,, Grand Rapids,,42.96324,-85.667864,4
Sierra Rose Ciders ,,http://www.sierrarosewinery.com/,, Grand Rapids,,42.96324,-85.667864,4
The Peoples Cider Co. ,,http://www.thepeoplescider.com/,, Grand Rapids,,42.96324,-85.667864,4
Thornapple Brewing Co. ,,http://www.thornapplebrewing.com/,, Grand Rapids,,42.96324,-85.667864,4
B.O.B.’s House of Brews Brewery,(616) 356-2000,thebob.com,"20 Monroe Avenue NW Grand Rapids, MI 49503",Grand Rapids, 49503,42.963826,-85.672484,1
Fountain Hill Brewery and Peter's Pub.,,www.grcc.edu/secchiainstituteforculinaryeducationsice/fountainhillbrewery,"151 Fountain ST. NE Grand Rapids, MI 49503",Grand Rapids, 49503,42.965485,-85.664593,1
Atwater Brewery in Grand Rapids,(616) 649-3020,www.atwaterbeer.com,"201 Michigan Street, NW Grand Rapids, MI 49506",Grand Rapids, 49506,42.969989,-85.610399,1
Jolly Pumpkin Pizzeria & Brewery-Grand Rapids,(616) 419-4676,www.jollypumpkin.com,"428 Bridge Street NW Grand Rapids, MI 49504",Grand Rapids, 49504,42.970516,-85.680379,1
Harmony Hall,(616) 233-9186,www.harmonybeer.com,"401 NW Stocking Avenue Grand Rapids, MI 49504",Grand Rapids, 49504,42.970672,-85.683933,1
"New Holland B.C.'s Knickerbocker Brewpub & Distillery, The",(616) 345-5642,www. .com/newhollandknickerbocker,"417 Bridge Street NW Grand Rapids, MI 49504",Grand Rapids, 49504,42.970675,-85.680087,1
Vander Mill Cidery and Restaurant,(616) 259-8828,vandermill.com,"505 Ball Ave. NE Grand Rapids, MI 49503",Grand Rapids, 49503,42.971272,-85.630595,1
DeHop's Brewing Company & Café,(616) 805-3363,www.dehops.com,"363 Cummings Ave NW Walker, MI 49534",Walker, 49534,42.971734,-85.771457,1
Trail Point Brewing Company,(616) 895-2793,www.trailpointbrewing.com,"6035 Lake Michigan Drive Allendale, MI 49401",Allendale, 49401,42.972428,-85.936117,1
Wings Etc. (Black & Blue Brewery),(810) 479-9606,https://www.facebook.com/BlacknBluebeer/,"330 Quay St Port Huron, MI 48060",Port Huron, 48060,42.975558,-82.422321,1
City Built Brewing Company,(616) 805-5755,citybuiltbrewing.com,"820 North Monroe NW no phone numberGrand Rapids, MI 49503",Grand Rapids, 49503,42.976955,-85.672409,1
Steele Street Brewing,(616) 523-4003,`,"300 South Steele Street Ionia, MI 48846",Ionia, 48846,42.981358,-85.067662,1
"Mitten Brewing Company, The",(616) 608-5612,www.mittenbrewing.com,"527 Leonard St, NW Grand Rapids, MI 49504",Grand Rapids, 49504,42.985068,-85.680909,1
Creston Brewery,(616) 805-4523,www.crestonbrewery.com,"1504 Plainfield Ave, NW Grand Rapids, MI 49505",Grand Rapids, 49505,42.989499,-85.663911,1
"Red Baron, The",(810) 744-1310,baronburger.com,"2495 South Center Road Burton, MI 48509",Burton, 48509,42.992511,-83.633739,1
Greyline Brewing Company,,www.greylinebrewing.com,"1727 Alpine Ave NW Grand Rapids, MI 49504",Grand Rapids, 49504,42.994982,-85.688443,1
Phillips Orchards ,,http://www.phillipsorchards.com/,, St Johns,,43.000928,-84.55851,4
Uncle John’s ,,,,,,43.000928,-84.55851,4
Redline Brewing Company,(810) 259-2009,www. .com,"5470 Lapeer Road Burton, MI 48509",Burton, 48509,43.010854,-83.597207,1
Tenacity Brewery,(810) 339-6676,www.tenacitybrewing.com,"119 Grand Traverse Street Flint, MI 48503",Flint, 48503,43.015552,-83.696898,1
Flint City Hard Cider Co. ,,https://www.facebook.com/FlintCityHardCiderCo/,, Flint,,43.016169,-83.690021,4
Uncle John's Fruit House Winery,,,8614 North US 127,St Johns,48879,43.024263,-84.563153,2
Robinette's Apple Haus & Winery,,,3142 4 Mile Road NE,Grand Rapids,49525,43.028064,-85.592066,2
Speciation Artisan Ales,(000) 000-0000,speciationartisanales.com,"3721 Laramie NE Comstock Park, MI 49321",Comstock Park, 49321,43.030685,-85.66808,1
Elk Brewing Comstock Park,(616) 214-8172,http://elkbrewing.com,"400 Dodge Street, NE,  Comstock Park, MI 49321",Comstock Park, 49321,43.044947,-85.658841,1
MD’s Sports Tavern,(810) 653-6408,www.mdsportstavern.com,"3040 State Road Davision, MI 48423",Davision, 48423,43.053153,-83.518089,1
Tilted Axis Brewing Company,(810) 969-4477,www.tiltedaxis.beer,"303 W. Nepessing Street Lapeer, MI 48446",Lapeer, 48446,43.053776,-83.312476,1
Bier Distillery,(616) 888-9746,`,"5295 West River Dr NW Comstock Park, MI 49321",Comstock Park, 49321,43.058934,-85.64159,1
Pink Barrel Cellars,(616) 784-2820,PinkBarrelCellars.com,"3025 6 Mile Rd NW, Grand Rapids, MI 49544",Grand Rapids, 49544,43.059139,-85.744322,1
Almar Orchards ,,http://jksfarmhouseciders.com/,, Flushing,,43.063083,-83.851073,4
Grand Armory Brewing,(616) 414-7822,www.grandarmorybrewing.com,"17 South 2'nd Street Grand Haven, MI 49417",Grand Haven, 49417,43.063788,-86.231256,1
Perrin Brewing Company,(616) 551-1957,www.perrinbrewing.com,"5910 Comstock Park Dr  Comstock Park, MI 49321",Comstock Park, 49321,43.071512,-85.682212,1
Odd Side Ales,(616) 935-7326,oddsideales.com,"41 Washington Grand Haven, MI 49448",Grand Haven, 49448,43.075603,-86.06512,1
Vander Mill,(616) 842-4337,https://vandermill.com/0,"14921 Cleveland Street Spring Lake, MI 49456",Spring Lake, 49456,43.076424,-86.170175,1
Old Boys’ Brew House,(616) 850-9950,oldboysbrewhouse.com,"971 West Savidge Spring Lake, MI 49456",Spring Lake, 49456,43.076689,-86.176491,1
Third Nature Brewing Company,(616) 512-9314,thirdnaturebrewing.com,"7733 Childsdale Ave NE Rockford, MI 49341",Rockford, 49341,43.107951,-85.572578,1
Jk's Scrumpy,,,1431 Duffield Road,Flushing,48433,43.117745,-83.912346,2
Rockford Brewing Company,(616) 951-4677,rockfordbrewing.com,"12 East Bridge Street Rockford, MI 49341",Rockford, 49341,43.119555,-85.560905,1
Depot No. 36. (Kayla Rae Cellars),(616) 951-1213,kaylaraecellars.com,"31 Courtland Street Rockford, MI 49341",Rockford, 49341,43.120963,-85.559317,1
Schaefer Cider Company ,,http://www.schaeferciders.com/,, Conklin,,43.127293,-85.881863,4
McCallum's Orchard and Cider Mill,,,5697 Harris Road,Jeddo,48032,43.13786,-82.572538,2
Cellar Brewing Company ,,http://cellarbrewingco.com/,, Sparta,,43.160858,-85.710039,4
Cellar Brewing Company,(616) 383-1234,cellarbrewingco.com,"500 West Division Street Sparta, MI 49345",Sparta, 49345,43.160897,-85.71763,1
Castle Brewing Company,(616) 712-6226,castlebrewingco.com,"1310 West Washington  Greenville, MI 48838",Greenville, 48838,43.17738,-85.27032,1
Flat River Brewing Company,(616) 232-2447,www.flatriverbrewingco.com,"300 W. Greenville West Dr. Greenville, MI 48838",Greenville, 48838,43.183445,-85.277732,1
Cedar Springs Brewing Company,(616) 696-2337,www.csbrew.com,"95 North Main Cedar Springs, MI 49319",Cedar Springs, 49319,43.22336,-85.551424,1
Lake Effect Winery,,,5506 Harvey Street,Muskegon,49444,43.226913,-86.204331,2
Clay Avenue Cellars,,,611 Clay Avenue,Muskegon,49440,43.230944,-86.257975,2
Piegon Hill Brewing Company,(231) 375-5184,pigeonhillbrew.com,"500 West Western Ave, Suite 1 Muskegon, MI 49440",Muskegon, 49440,43.233801,-86.255815,1
Unruly Brewing Company,(231) 288-1068,www.unrulybrewing.com,"360 West Western Muskegon, MI 49440",Muskegon, 49440,43.235058,-86.253624,1
Rake Beer Project,,www.rakebeerproject.com,"794 Pine Street Muskegon, MI 49442",Muskegon, 49442,43.238099,-86.245505,1
Hometown Cellars,,, 108 East Center Street ,Ithaca,48847,43.291572,-84.605961,2
Frankenmuth Brewery,(989) 262-8300,frankenmuthbrewery.com,"425 South Main Street Frankenmuth, MI 48734",Frankenmuth, 48734,43.328933,-83.739294,1
Ridge Cider Co. ,,http://www.ridgecider.com/,, Grant,,43.336132,-85.810882,4
Alma Brewing Company,(989) 462-0208,www.almabrewing.com,"208 East Superior Street Alma, MI 48801",Alma, 48801,43.378888,-84.658889,1
Blue Water Winery and Vineyard,,,7131 Holverson Road,Carsonville,48419,43.380036,-82.544411,2
Fetch Brewing Company,(231) 292-1048,`,"100 West Colby Street Whitehall, MI 49461",Whitehall, 49461,43.409773,-86.349485,1
"Maple Grille, The",(989) 233-2895,themaplegrille.net,"13105 Gratiot Road Hemlock, MI 48626",Hemlock, 48626,43.412431,-84.275897,1
Eastman’s Forgotten Ciders ,,https://www.facebook.com/EastmansForgottenCiders,, Wheeler,,43.412807,-84.437774,4
Loggers Brewing Company,(989) 401-3085,www.loggersbrewingcompany.com,"1215 South River Road Shields, MI 48609",Shields, 48609,43.416917,-84.049221,1
North Grove Brewers,(231) 894-0144,www.northgrovebrewers.com,"8735 Water St  Montague, MI 49437",Montague, 49437,43.41724,-86.354434,1
Oracle Brewing Company,(989) 401-7446,www.oraclebeer.com,"122 N Michigan Ave Saginaw, MI 48602",Saginaw, 48602,43.417723,-83.964013,1
"Bardic Wells Meadery, Montague",,www.bardicwells.com,8844 Water St,Montague,49437,43.418522,-86.353597,3
Elk Street Brewery & Tap Room,(810) 648-1600,elkstreetbrewery.com,"3 South Elk Street Sandusky, MI 48471",Sandusky, 48471,43.420374,-82.829771,1
Newaygo Brewing Company,(231) 452-6551,www.newaygobrewing.com,"19 State Road Newaygo, MI 49337",Newaygo, 49337,43.423866,-85.795858,1
Heavenly Vineyards,(616) 710-2751,heavenlyvineyards.weebly.com,"15946 Jefferson Road Morley, MI 49336",Morley, 49336,43.489827,-85.463503,1
Bardic Wells meadery,,,6737 50th Avenue,Montague,49437,43.524169,-86.43299,2
Oceana Winery & Vineyard,,,4980 S 52nd Ave,New Era,49446,43.555696,-86.427557,2
Hunter’s Handmade Brewery,(989) 779-2626,`,"4855 E. Bluegrass Mount Pleasant , MI 48858",Mount Pleasant , 48858,43.575378,-84.747433,1
Lumber Baron's Brewery,(989) 891-0100,lumberbaronsbrewery.com,"804 East Midland Bay City, MI 48706",Bay City, 48706,43.601846,-83.898209,1
Mountain Town Station,(517) 775-2337,www.mountaintown.com,"506 W Broadway Mt. Pleasant, MI 48858",Mt. Pleasant, 48858,43.605212,-84.781505,1
Tri-City Brewing Company,(989) 686-1340,tricitybrewing.com,"4170 Shrestha Drive Bay City, MI 48706",Bay City, 48706,43.620198,-83.909385,1
Midland Brewing Company,(989) 631-3041,www.midlandbrewing.com,"5011 North Saginaw Street Midland, MI 48642",Midland, 48642,43.649237,-84.309235,1
Big Hart Brewing Company,(231) 301-8226,bighartbrewing.com,"4086 W Polk Road Hart, MI 49420",Hart, 49420,43.689044,-86.379857,1
Abner's Restaurant (closes from late Nov.-Spring),(231) 689-2295,abners-restaurant.com,"7528 Woodbridge (M-37) Brohman, MI 49312",Brohman, 49312,43.690139,-85.815442,1
The Fox Barn Market & Winery,,,500 18th Avenue,Shelby,49455,43.692858,-86.515854,2
Crankers Brewery-Big Rapids,(231) 796-1919,www.crankersbrewery.com,"213 South State Street Big Rapids, MI 49307",Big Rapids, 49307,43.69593,-85.483769,1
Raven Brewing & BBQ,(231) 629-8017,`,"121 North Michigan Ave Big Rapids, MI 49307",Big Rapids, 49307,43.698738,-85.482118,1
Jomagrha Vineyards and Winery,,,7365 S. Pere Marquette Hwy,Pentwater,49449,43.820675,-86.40138,2
Four Leaf Brewing,(989) 424-6114,`,"412 North McEwan Street Clare, MI 48617",Clare, 48617,43.825688,-84.768359,1
Reed City Brewing Company,(231) 465-4222,https://www. .com/RedTailBrewingCo/,"141 W Upton Ave Reed City, MI 49677",Reed City, 49677,43.875879,-85.51072,1
Dizzy Daisy Winery,,,1288 Crown Road,Bad Axe,48413,43.88018,-83.033953,2
Thumb Brewery(closes from late Nov.-Spring),(989) 856-1228,thumbbrewery.com,"6758 Pine Street Caseville, MI 48725",Caseville, 48725,43.942657,-83.27243,1
Starving Artist Brewing Company-Production Facility Only,(231) 794-1399,www.starvingartistbeer.com,"634 South Stiles Road Ludington, MI 49431",Ludington, 49431,43.944011,-86.339408,1
Ludington Bay Brewing Company,(231) 335-4060,ludingtonbaybrewingco.com,"515 S. James Street Ludington, MI 49431",Ludington, 49431,43.950702,-86.447634,1
Jamesport Brewing Company,(231) 845-2522,www.jamesportbrewingco.com,"410 South James St.  Ludington, MI 49431",Ludington, 49431,43.951686,-86.447873,1
Modern Craft Winery,,,2760 E. Booth Road,Au Gres,48703,43.994505,-83.696915,2
Bird Creek Brewery-Bird Creek Farms (closes from late Nov.-Spring),(989) 553-6444,`,"282 Grindstone Road Port Austin, MI 48467",Port Austin, 48467,44.040802,-82.986962,1
Modern Craft Wine,,,211 E Huron Rd,Au Gres,48703,44.048068,-83.693181,2
Krolczyk Cellars,,,9042 N Darr Road,rand Rapids,49411,44.1198,-86.261616,2
North Channel Brewing,(231) 299-1020,northchannelbrewing.com,"86 Washington Street Manistee , MI 49660",Manistee , 49660,44.249294,-86.323799,1
Clam Lake Beer Company,(231) 775-6150,clamlakebeerco.com,"106 South Mitchell Street Cadillac, MI 49601",Cadillac, 49601,44.249881,-85.399452,1
Boathouse Beer Co. & Boozery,(989) 984-5233,www.boathousebeerco.com,"450 W Lake Street Tawas City, MI 48763",Tawas City, 48763,44.26826,-83.516907,1
"Highway Brewing Co., The",(989) 701-2740,www.highwaybrewingco.com,"209 W. Houghton Ave.,  West Branch, MI 48661",West Branch, 48661,44.276352,-84.237516,1
Douglas Valley,,,5375 Douglas Valley Drive,Manistee,49660,44.318618,-86.224258,2
Douglas Valley ,,http://www.douglasvalley.net/,, Manistee,,44.330804,-86.026204,4
Northern Natural Cider House & Winery ,,http://www.northernnaturalwinery.com/,, Kaleva,,44.373337,-86.01036,4
Valley Mist Vineyards,,,2742 Townline Road,Rose City,48654,44.414259,-84.126612,2
Wiltse’s Brew Pub and Family Rest.,(517) 739-2231,wiltsebrewpub.com,"5606 North F 41 Oscoda, MI 48750",Oscoda, 48750,44.422917,-83.550866,1
Rose Valley Winery,,,3039 Beechwood Road,Rose City,48654,44.42885,-84.106434,2
Northern Natural Winery,,,3020 Benzie Highway,Benzonia,49616,44.588097,-86.099457,2
St. Ambrose Cellars,,,971 South Pioneer Road,Beulah,49617,44.617024,-85.998387,2
St. Ambrose Cellars,(231) 383-4262,www.stambrose-mead-wine.com,"841 South Pioneer Road Beulah, MI 49617",Beulah, 49617,44.617935,-85.998228,1
"St. Ambrose Cellars, Bulah",,www.stambrose-mead-wine.com,841 S. Pioneer Rd. Beulah,Beulah,49617,44.617935,-85.998228,3
Five Shores Brewing,(231) 383-4400,fiveshoresbrewing.com,"63 S Benzie Blvd Beulah, MI 49617",Beulah, 49617,44.631384,-86.092352,1
St. Ambrose Cellars ,,https://www.stambrose-mead-wine.com/,, Beulah,,44.631944,-86.090924,4
Stormcloud Brewery & Parkview Taproom,(231) 352-0118,`,"366 Parkview Lane Frankfort, MI 49635",Frankfort, 49635,44.634251,-86.222325,1
Alcona Brew Haus,(989) 724-6338,https://www.facebook.com/alconabrew/,"676 North US-23 Harrisville, MI 48740",Harrisville, 48740,44.636905,-83.307117,1
Paddle Hard Microbrewery,(989) 745-6388,www.paddlehardbrewing.com,"118 East Michigan Ave. Grayling, MI 49738",Grayling, 49738,44.661302,-84.714769,1
Paddle Hard Brewing,(989) 745-6388,www.paddlehardbrewing.com,"227 E. Michigan Ave Grayling, MI 49738",Grayling, 49738,44.661797,-84.714412,1
Rolling Oak Brewing Company,(989) 745-6280,`,"509 Norway Street Grayling, MI 49738",Grayling, 49738,44.661973,-84.716795,1
Dead Bear Brewing Company,(989) 745-6289,www.mainstreamsteakandribs.com,"2552 S 1-75 Business Loop Grayling, MI 49738",Grayling, 49738,44.691621,-84.718104,1
Brewery Terra Firma,(231) 929-1600,BreweryTerrraFirma.com,"2959 Hartman Road Traverse City, MI 49685",Traverse City, 49685,44.715099,-85.635106,1
Grand Traverse Distillery,,,781 Industrial Circle,Traverse City,49686,44.721971,-85.558589,2
Lake Ann Brewing Company,(231) 640-2327,www.lakeannbrewing.com,"6535 First Street Lake Ann, MI 49650",Lake Ann, 49650,44.724149,-85.843069,1
Fresh Coast Beer Works & Ubrew Homebrew Supply,(231) 943-2016,ubrew.cc/homebrew,"3054 Cass Road, Unit F Traverse City, MI 49684",Traverse City, 49684,44.730425,-85.625634,1
Right Brain Brewery,(231) 944-1239,rightbrainbrewery.com,"225 East 16th Street Traverse City, MI 49684",Traverse City, 49684,44.74919,-85.624845,1
Traverse City Whiskey Co.,,,201 E 14th Street,Traverse City,49684,44.751621,-85.620871,2
Earthen Ales,(231) 252-4270,earthenales.com,"1371 Gray Drive,?Suite 200 Traverse City, MI 49684",Traverse City, 49684,44.755294,-85.645425,1
Left Foot Charley,,,806 Red Drive,Traverse City,49684,44.756288,-85.645216,2
Filling Station Microbrewery,(231) 946-8168,thefillingstationmicrobrewery.com,"642 Railroad Place Traverse City, MI 49686",Traverse City, 49686,44.758096,-85.609476,1
Silver Spruce Brewing Company,(231) 252-3552,http://www.silversprucebrewing.com,"439 E Eighth Street Traverse City, MI 49686",Traverse City, 49686,44.759663,-85.614024,1
Rare Bird Brewpub,(231) 943-2053,www.rarebirdbrewpub.com,"229 Lake Avenue Traverse City, MI 49684",Traverse City, 49684,44.75978,-85.619323,1
Bowers Harbor Vineyards ,,https://www.bowersharbor.com/,, Traverse City,,44.760644,-85.61653,4
Cherry Republic ,,http://www.cherryrepublic.com/,, Traverse City,,44.760644,-85.61653,4
Left Foot Charley ,,http://www.leftfootcharley.com/,, Traverse City,,44.760644,-85.61653,4
Nomad Cidery ,,https://www.facebook.com/Nomad-Cidery-465099406982082/,, Traverse City,,44.760644,-85.61653,4
Taproot Cider House,,http://www.taproottc.com/,,Traverse City,,44.760644,-85.61653,4
MiddleCoast Brewing Company,(231) 943-2739,www.monkeyfistbrewingco.com,"329 E. State Street Traverse City, MI 49684",Traverse City, 49684,44.763118,-85.616878,1
Acoustic Draft Mead,,www.drinkacoustic.com,119 N S Maple St,Traverse City,49684,44.76317,-85.6328,3
Workshop Brewing Company (at The Coin Slot),(231) 642-5661, .com/workshopkegstand,"346 East Front Street Traverse City, MI 49684",Traverse City, 49684,44.763917,-85.616265,1
Mackinaw Brewing Company,(231) 933-1100,mackinawbrewing.com,"161East Front St. Traverse City , MI 49684",Traverse City , 49684,44.764044,-85.623812,1
North Peak Brewing Company,(231) 941-9325,northpeak.net,"400 W. Front St. Traverse City, MI 49684",Traverse City, 49684,44.764316,-85.628543,1
"Workshop Brewing Company, The",(570) 872-4957,traversecityworkshop.com,"221 Garland St, Suite A  Traverse City, MI 49684",Traverse City, 49684,44.765271,-85.626044,1
Townline Ciderworks ,,https://www.facebook.com/TownlineCider/,, Williamsburg,,44.773614,-85.403956,4
Bel Lago Winery ,,http://bellago.com/,, Cedar,,44.847777,-85.79564,4
Big Cat Brewing Company,(231) 228-2282,`,"8699 S Good Harbor Trail Cedar, MI 49621",Cedar, 49621,44.852473,-85.792341,1
Bonobo Winery,,,12011 Center Road,Traverse City,49686,44.861988,-85.520645,2
Chateau Grand Traverse,,,12239 Center Road,Traverse City,49686,44.864881,-85.519993,2
Jolly Pumpkin Old Mission,(231) 223-4333,jollypumpkin.com,"13512 Peninsula Dr Traverse City, MI 49686",Traverse City, 49686,44.886151,-85.528622,1
Bowers Harbor Vineyards,,,2896 Bowers Harbor Road,Traverse City,49686,44.892538,-85.515774,2
Cherry Public House (in Cherry Republic),(231) 334-3150,`,"6026 South Lake Street Glen Arbor, MI 49636",Glen Arbor, 49636,44.89709,-85.988986,1
Cherry Republic,,,6026 S. Lake Street,Glen Arbor,49636,44.89709,-85.988986,2
Ethanology Spirits,,,127 Ames Street,Elk Rapids,49629,44.900801,-85.407788,2
Willow Vineyard,,,10702 E Hilltop Road,Suttons Bay,49682,44.906728,-85.644019,2
Ciccone Vineyard & Winery,,,10343 East Hilltop Road,Suttons Bay,49682,44.906851,-85.650249,2
Black Star Farms,,,10844 E. Revold Road,Suttons Bay,49682,44.935797,-85.633652,2
Brengman Brothers,,,9720 South Center Highway,Traverse City,49684,44.956255,-85.654222,2
Bee Well Meadery-Bellaire,,www.beewellmeadery.com,116 N Bridge St,Bellaire,49615,44.975681,-85.209891,3
Short's Brewing Company-Pub,(231) 498-2300,shortsbrewing.com,"121 N. Bridge Street (M-88) Bellaire, MI 49615",Bellaire, 49615,44.975972,-85.209928,1
Short's Brewing Company,,,121 N Bridge Street,Bellaire,49615,44.976194,-85.210166,2
bigLITTLE Wines ,,http://www.biglittlewines.com/,, Suttons Bay,,44.976666,-85.650639,4
Black Star Farms ,,http://www.blackstarfarms.com/,, Suttons Bay,,44.976666,-85.650639,4
Chateau de Leelanau ,,http://www.chateaudeleelanau.com/,, Suttons Bay,,44.976666,-85.650639,4
L.Mawby ,,http://lmawby.com/,, Suttons Bay,,44.976666,-85.650639,4
Suttons Bay Ciders ,,http://suttonsbayciders.com/,, Suttons Bay,,44.976666,-85.650639,4
Tandem Ciders ,,http://www.tandemciders.com/,, Suttons Bay,,44.976666,-85.650639,4
Bee Well Meadery ,,http://beewellmeadery.com/,, Bellaire,,44.980282,-85.211173,4
Starcut Ciders ,,http://starcutciders.com/,, Bellaire,,44.980282,-85.211173,4
45 North Vineyard & Winery ,,https://fortyfivenorth.com/,, Lake Leelanau,,44.980832,-85.715085,4
Blustone Vineyards ,,http://www.blustonevineyards.com/,, Lake Leelanau,,44.980832,-85.715085,4
Amoritas Vineyards,,,6701 E Duck Lake Rd. ,Lake Leelanau,49653,44.981221,-85.719484,2
Bee Well meadery,,,3533 S Derenzy Road,Bellaire,49615,44.98342,-85.193062,2
Hop Lot Brewing Company,(231) 866-4445,www.hoplotbrewing.com,"658 S West-Bay Shore Drive Suttons Bay, MI 49682",Suttons Bay, 49682,44.991177,-85.63911,1
Raftshol Vineyards,,,1865 N West Bay Shore Drive,Suttons Bay,49682,45.008755,-85.619994,2
Skipping Stone Cellars,,,5046 S West Bay Shore Drive,Suttons Bay,49682,45.008995,-85.61918,2
Three Fires Wine,,,5046 S W Bay Shore Dr,Suttons Bay,49682,45.008995,-85.61918,2
Aurora Cellars,,,7788 East Horn Road,Lake Leelanau,49653,45.015071,-85.697599,2
Circa Estate Winery,,,7788 E. Horn Road,Lake Leelahau,49653,45.015747,-85.695334,2
Big Buck Brewery,(989) 448-7072,www.bigbuckbrewery.com,"550 S. Wisconsin Ave Gaylord, MI 49735",Gaylord, 49735,45.022337,-84.682619,1
Snowbelt Brewing Company,(989) 448-7077,`,"132 W. Main St. Gaylord , MI 49735",Gaylord , 49735,45.027456,-84.675137,1
Mammoth Distilling,(231) 544-1515, .com/MammothDistilling,"2407 Main Street Central Lake , MI 49622",Central Lake , 49622,45.070323,-85.264238,1
Austin Brothers Beer Company,(989) 340-2300,http://austinbrosbeerco.com/,"821 West Miller Street Alpena, MI 49707",Alpena, 49707,45.075009,-83.434342,1
Gill's Pier Vineyard & Winery,,,5620 N. Manitou Trail,Northport,49670,45.076453,-85.686702,2
Green Bird Organic Cellars & Crows Hard Cider,(231) 386-5636,www.greenbirdcellars.com,"9825 Engles Road Northport, MI 49670",Northport, 49670,45.105938,-85.648234,1
Good Neighbor Organic,,,9825 Engles Road,Northport,49670,45.105938,-85.648234,2
Shorts B.C. Production Facility.,(231) 264-8711,www.shortsbrewing.com/visit-us/production-facility,"211 Industrial Park Drive Elk Rapids, MI 49629",Elk Rapids, 49629,45.108032,-85.360504,1
Stoney Acres Winery (Michigan),,,4268 Truckey Road,Alpena,49707,45.109519,-83.477809,2
Three Bridge Brewing Company,(906) 399-9611,https://m.facebook.com/threebridgebrewing/,"2221 13th Street Menominee, MI 49858",Menominee, 49858,45.119144,-87.618493,1
Motovino Cellars,,,110 Waukazoo Street,Northport,49670,45.129561,-85.616674,2
"Mitten B.C.-Northport, The",(231) 386-1101,www.mittenbrewing.com/northport,"112 West Naganoba Street Northport, MI 49670",Northport, 49670,45.129825,-85.617881,1
Green Bird Cellars ,,http://www.greenbirdcellars.com/,, Northport,,45.131388,-85.616751,4
Stiggs Brewing Company,(231) 497-6100,http://www.stiggsbrewingcompany.com,"112 South Park Street Boyne City, MI 49712",Boyne City, 49712,45.215048,-85.013066,1
Bier's Inwood Brewery,(231) 675-7632,`,"17959 Ferry Rd Charlevoix, MI 49720",Charlevoix, 49720,45.257657,-85.342063,1
Mackinaw Trail Brewing Company (at Mackinaw Trail Winery),(231) 487-1910,`,"3423 US HWY 131 Petoskey, MI 49770",Petoskey, 49770,45.328574,-84.965781,1
Burnt Marshmallow Brewing,(231) 622-4173,www.burtmarshmallow.beer,"3379 Lake Grove Road Petoskey, MI 49770",Petoskey, 49770,45.329461,-85.027154,1
Petoskey Brewing Company,(231) 753-2057,petoskeybrewing.com,"1844 M-119 Petoskey, MI 49770",Petoskey, 49770,45.355915,-84.913255,1
Petoskey Farms Vineyard & Winery,,,3720 Atkins Road,Petoskey,49770,45.363045,-84.942214,2
Mackinaw Trail Winery,,,3423 US 131,Petoskey,49770,45.365099,-84.970899,2
Mackinaw Trail Winery & Brewery ,,http://www.mackinawtrailwinery.com/,, Petoskey,,45.373343,-84.95533,4
Petoskey Brewing ,,http://www.petoskeybrewing.com/,, Petoskey,,45.373343,-84.95533,4
Petoskey Farms Vineyard & Winery ,,https://www.petoskeyfarms.com/,, Petoskey,,45.373343,-84.95533,4
Resort Pike Cidery & Winery ,,https://www.resortpike.com/,, Petoskey,,45.373343,-84.95533,4
Schmohz Brewery-Petoskey (sharing space with Mancino's of Petoskey),(231) 348-3700,www.Schmohz.com,"109 W. Mitchell Street Petoskey , MI 49770",Petoskey , 49770,45.373917,-84.962041,1
Beards Brewery,(231) 753-2221,www.beardsbrewery.com,"215 East Lake Street Petoskey , MI 49770",Petoskey , 49770,45.375338,-84.954258,1
Burt Lake Brewing,(231) 548-1280,seasonsofthenorth.com/burt-lake,"9090 West M-68 Highway Indian River, MI 49749",Indian River, 49749,45.401023,-84.603878,1
Superior State Brewing,(906) 753-6000,https://www.facebook.com/pages/category/Brewery/Superior-State-Brewing-612429075589833/,"207 Railroad Street Stephenson , MI 49887",Stephenson , 49887,45.500386,-87.407871,1
Crooked Vine Vineyard & Winert,,,8370 Lakeview Road,Alanson,49706,45.428461,-84.771505,2
Seasons of the North Winery,,,9090 Michigan 68 Highway,Alanson,49706,45.444071,-84.786698,2
Pleasantview Vineyards,,,6769 Pleasantview Road,Harbor Springs,49740,45.452986,-84.91485,2
Pond Hill Farm Brewery (Tunnel Vision Brewery),(231) 526-3276,`,"5699 South Lake Shore Drive Harbor Springs, MI 49740",Harbor Springs, 49740,45.473287,-85.055871,1
Nicholas's Black River Vineyard & Winery,,,6209 N Black River Road,Cheboygan,49721,45.542848,-84.379316,2
Twisted Roots Cider ,,http://ujhardcider.com/,, Rogers City,,45.607537,-84.469112,4
Cheboygan Brewing Company,(231) 268-3218,www.cheboyganbrewing.com,"101 N. Main Street Cheboygan, MI 49721",Cheboygan, 49721,45.64847,-84.47341,1
Northern Sun Winery,,,983 10th Road,Bark River,49807,45.681293,-87.321758,2
Upper Hand Brewing Company,(906) 233-5005,www.upperhandbrewery.com,"3525 Airport Escanaba, MI 49829",Escanaba, 49829,45.716428,-87.097528,1
Hereford & Hops Rest. & Brewpub #1,(906) 789-1945,herefordandhops.com,"624 Ludington St. Escanaba, MI 49829",Escanaba, 49829,45.745896,-87.056457,1
Whiskey Point Brewing Company,(231) 448-2112,www.whiskeypointbrewing.com,"38230 Michigan Ave. Beaver Island, MI 49782",Beaver Island, 49782,45.749677,-85.509234,1
Threefold Vine Winery,,,5856 Nn Road,Garden,49835,45.760039,-86.564344,2
Biére De Mac Brew Works,(231) 427-7007,bieredemac.com,"14277 Mackinaw Hwy Mackinaw City, MI 49701",Mackinaw City, 49701,45.768799,-84.732097,1
Rusted Spoke Brewing Company,(231) 463-5773,`,"810 S Huron Ave Mackinaw City, MI 49701",Mackinaw City, 49701,45.770828,-84.727099,1
Garden Bay Winery,,,15640 18th Road,Garden,49835,45.795125,-86.557855,2
51st State Brewing Company,(812) 660-1022,www.51ststatebrewingco.com,"115 Harding Ave  Kingsford , MI 49802",Kingsford , 49802,45.808408,-88.08819,1
Mackinaw Trail Winery & B.C.,(906) 341-2303,www.MackinawTrailWinery.com,"103 W. Lakeshore Manistique, MI 49854",Manistique, 49854,45.952895,-86.252327,1
Les Cheneaux Distillers,(906) 484-1213,`,"172 S. Meridian Street  Cedarville, MI 49719",Cedarville, 49719,45.997236,-84.363012,1
Alpha Michigan Brewing Company,(906) 875-6332,alphabrewingco.com,"303 East Center Street Alpha, MI",Alpha, 49920,46.047202,-88.376568,1
Keweenaw B.C. Canning and Brewing Facility only,(906) 482-1937,`,"10th Fourth Street South Range, MI 49963",South Range, 49963,46.079066,-88.631185,1
"Blackrocks Brewery, The",(906) 273-1333,www.blackrocksbrewery.com,"424 N. Third Street Marquette, MI 49855",Marquette, 49855,46.408473,-87.977151,1
East Channel Brewing Company,(906) 387-3007,https://www. .com/EastChannelBrew/,"209 Maple Street Munising, MI 49862",Munising, 49862,46.409341,-86.654525,1
BY George Brewing Company,(616) 234-3700,https://www.bygeorgebrewing.com/?fbclid=IwAR1sJ5VW7w2Mm9gthoERVo0tOyIVo1orBvd1hGEIrJDeJWcDLulcvX5cNvM,"231 E Superior St  Munising, MI 49862",Munising, 49862,46.409777,-86.652762,1
Shooters Firehouse Brewery,(906) 387-3540,shootersbrewpub.com,"408 MIll Street Munsing, MI 49862",Munsing, 49862,46.417663,-86.664182,1
Cold Iron Brewing,(206) 714-9242,`,"104 South Lowell Street Ironwood, MI 49938",Ironwood, 49938,46.454623,-90.169849,1
Cognition Brewing Company,(906) 204-2724,cognitionbrewingcompany.com,"113 Canada Street Ishpeming, MI 49849",Ishpeming, 49849,46.490813,-87.668949,1
Lake Superior Smokehouse Brewpub,(908) 273-0952,`,"200 W. Main St. Harvey , MI 49855",Harvey , 49855,46.497,-87.355818,1
1668 Winery & Lockside Brewery,(906) 259-5035,http://1668winery.com/,"100 West Portage Sault St. Marie , MI 49783",Sault St. Marie , 49783,46.500243,-84.345948,1
Soo Brewing Company,(906) 632-4400,www.soobrew.com,"223 W. Portage Avenue Sault Ste. Marie, MI 49783",Sault Ste. Marie, 49783,46.500934,-84.348314,1
Jasper Ridge Brewery,(906) 485-6017,jasperridgebrewery.com,"1075 Country Lane Ishpeming, MI 49849",Ishpeming, 49849,46.501482,-87.679148,1
Karls Cuisine Winery & Brewery,(906) 253-1900,www.karlscuisine.com,"447 W Portage Ave. Sault Sainte Marie, MI 49783",Sault Sainte Marie, 49783,46.501638,-84.354303,1
Drifa Brewing Company,(906) 273-1300,www. .com/Marquettebrewingcooperative,"501 S. Lake St. Marquette , MI 49055",Marquette , 49055,46.505533,-87.606647,1
Ore Dock Brewing Company,(906) 228-8888,www.ore-dock.com,"114 W Spring Street Marquette, MI 49855",Marquette, 49855,46.541891,-87.393886,1
"Vierling Rest. & Marquette Harbor Brewery, The",(906) 228-3533,thevierling.com,"119 S. Front St Marquette, MI 49855",Marquette, 49855,46.542559,-87.392895,1
barrel + beam,(906) 273-2559,barrelandbeam.com,"260 Northwoods Road Marquette, MI 49855",Marquette, 49855,46.54578,-87.472217,1
Superior Culture,(906) 273-0927,www.superiorculturemqt.com,"717 N. 3'rd Street Marquette, MI 49855",Marquette, 49855,46.549428,-87.39488,1
Old Nation Brewing Company,(517) 655-1308,www.oldnationbrewing.com,"1500 Grand River Ave Williamston , MI 49855",Williamston , 49855,46.560525,-87.429401,1
Tahquamenon Falls Brewery & Pub,(906) 492-3300,www.tahquamenonfallsbrewery.com,"M-123  Paradise, MI 49768",Paradise, 49768,46.616789,-85.136536,1
Lake Superior Brewing Company,(906) 494-,grandmaraismichigan.com/LSBC/index.html,"N14283 Lake Ave. Grand Marais , MI 49839",Grand Marais , 49839,46.671964,-85.985189,1
Algomah Acres Honey House Meadery,,www.algomahacres.publishpath.com,611 Plank Rd,Greenland,49929,46.779708,-89.092785,3
Carrousel Winery,,,21 Trimountain Avenue,South Range,49963,47.069713,-88.640331,2
Keweenaw Brewing Company,(906) 482-5596,www.Keweenawbrewing.com,"408 Shelden Ave.Houghton, MI 49931",Houghton, 49931,47.121986,-88.568773,1
"Library Restaurant & Brew, The Pub",(906) 487-5882,https://www. .com/pages/The-Library-Restaurant-Brew-Pub/114513525239518,"62 Isle Royale Street Houghton, MI 49931",Houghton, 49931,47.122159,-88.567011,1
Gitche Gumee Cider Works ,,http://www.gitchegumeeciderworks.com/,, Hancock,,47.126871,-88.580956,4
Red Jacket Brewing Company,(906) 337-1910,michiganhousecafe.com,"300 6’th St. Calumet, MI 49913",Calumet, 49913,47.246452,-88.453525,1
Brickside Brewery,(906) 289-4772,www.bricksidebrewery.com,"64 Gratiot Street Copper Harbor, MI 49918",Copper Harbor, 49918,47.467526,-87.886341,1
