Place,Phone,Website,Address,City,ZIP,LAT,LON,Type
Dewey Cannon Winery & Brewery Co.,,,9 Elm Street,Three Oaks,49128,41.801023,-86.610484,2
Journeyman Distillery,,,109 Generations Drive,Three Oaks,49128,41.802975,-86.611404,2
J. Tree Cellars,,,115 N. Main Street,Blissfield,49228,41.835599,-83.872135,2
Old Shore Vineyards,,,264 Browntown Road,Buchanan,49107,41.905823,-86.46161,2
The Round Barn Winery,,,10983 Hills Road,Baroda,49101,41.922268,-86.457869,2
Flying Otter Vineyard and Winery,,,3402 Chase Road,Adrian,49221,41.928924,-83.955323,2
Gravity Wine,,,10220 Lauer Road,Baroda,49101,41.932775,-86.436799,2
Free Run Cellars,,,10062 Burgoyne Road,Berrien Springs,49103,41.940128,-86.417754,2
Baroda Founders Wine Cellar,,,8963 Hills Road,Baroda,49101,41.950161,-86.479395,2
Pentamere Winery,,,131 East Chicago Boulevard,Tecumseh,49286,42.004199,-83.944248,2
Meckley's Flavor Fruit Farm,,,11025 S Jackson Road,Somerset Center,49282,42.058861,-84.406364,2
White Pine Winery and Vineyards,,,317 State Street,St Joseph,49085,42.109262,-86.481863,2
Carriage House Ciders,,,920 North Shore Drive,Benton Harbor,49022,42.125122,-86.455033,2
Terrace Hill Vineyards,,,1952 Angling Road,Watervliet,49098,42.147679,-86.267771,2
Contessa Wine Cellars,,,3235 Friday Road,Coloma,49038,42.16873,-86.306568,2
Karma Vista,,,6991 Ryno Road,Coloma,49038,42.178957,-86.295437,2
Spotted Dog Winery,,,1100 Woodland Drive E,Saline,48176,42.188326,-83.764526,2
Bella Vino Winery,,,340 Eureka Road,Wayne,48192,42.200019,-83.153758,2
Latitude 42 Brewing Company,,,7842 Portage Road,Portage,49002,42.20251,-85.560573,2
Warner Vineyards,,,706 South Kalamazoo Street,Paw Paw,49079,42.211856,-85.891492,2
Peterson and Sons Winery,,,9375 East P Avenue,Kalamazoo,49048,42.217824,-85.444202,2
Unity Vibration,,,93 Ecorse Road,Ypsilanti,48198,42.239759,-83.597202,2
Sleeping Bear Winery,,,2110 N Concord Road,Albion,49224,42.258884,-84.649114,2
Dark Horse Brewing Company,,,511 S Kalamazoo Avenue,Marshall,49068,42.266704,-84.963978,2
Cherry Creek Cellars,,,2199 North Concord Road,Albion,49224,42.269047,-84.649148,2
Jolly Pumpkin Cafe & Brewery,,,311 S Main Street,Ann Arbor,48104,42.27916,-83.748455,2
DeAngelis Cantina del Vino,,,7879 Jackson Road,Ann Arbor,48103,42.284964,-83.800479,2
Bell's Brewery,,,8938 Krum Ave.,Galesburg,49053,42.287388,-85.456735,2
Lone Oak Vineyard Estates,,,8400 Ann Arbor Road,Grass Lake,49240,42.287869,-84.263971,2
Arcadia Brewing Company Kalamazoo,,,701 E Michigan Avenue,Kalamazoo,49007,42.295079,-85.571537,2
Sandhill Crane Vineyards,,,4724 Walz Road,Jackson,49201,42.301963,-84.294607,2
North Peak Brewing Company,,,2319 Bishop Circle E,Dexter,48130,42.323718,-83.878322,2
Two James Spirits,,,2445 Michigan Avenue,Detroit,48216,42.331149,-83.079473,2
Atwater Brewery,,,237 Joseph Campau Street,Detroit,48207,42.337292,-83.018489,2
Detroit Vineyards,,,1000 Gratiot,Detroit,48207,42.340477,-83.041092,2
Chateau Aeronautique Winery,,,1849 Rives-Eaton Road,Jackson,49201,42.369059,-84.431585,2
The Depot,,,555 Dyckman Avenue,South Haven,49090,42.406402,-86.271875,2
B. Nektar meadery,,,1505 Jarvis Suite B  ,Ferndale,48220,42.456842,-83.113941,2
Schramm's meadery,,,327 W. 9 Mile Road,Ferndale,48220,42.460254,-83.138646,2
Valentine Distilling,,,161 Vester Ave,Ferndale,48220,42.461612,-83.133994,2
McIntosh Apple Orchards,,,6431 107th Avenue,South Haven,49090,42.469424,-86.16999,2
Red Hat Micro-Winery,,,24601 Jefferson Avenue,St Clair Shores,48080,42.473331,-82.889264,2
Royal Oak Winery,,,325 East Fourth Street,Royal Oak,48067,42.487415,-83.141655,2
Brewery Vivant,,,925 Cherry Street,Grand Rapids,49506,42.514752,-84.658783,2
Virtue Cider,,,2170 62nd Street,Fennville,49408,42.576187,-86.151648,2
Fenn Valley Vineyards,,,6130 122nd Avenue,Fennville,49408,42.578441,-86.144087,2
Filipo Marc Winery,,,39085 Garfield,Clinton Township,48038,42.584328,-82.952038,2
The Country Mill,,,4648 Otto Road,Charlotte,48813,42.585575,-84.797799,2
Rod & Rifle Spirits,,,14 Belleview,Mt Clemens,48043,42.58626,-82.883715,2
Chateau Valerio Winery,,,39085 Moravian Drive,Clinton Township,48036,42.588867,-82.914039,2
Howell's MainStreet Winery,,,201 W. Grand River,Howell,48843,42.595779,-84.0006,2
Saugatuck Brewing Company,,,2948 Blue Star Highway,Fennville,49408,42.632284,-86.211993,2
Fieldstone Winery,,,223 South Main Street,Rochester,48307,42.67481,-83.133493,2
Carriage House Cellars,,,10411 Clyde Road,Fenton,48430,42.677014,-83.753776,2
Michigan Brewing Works,,,3435 Dietz Road,Williamston,48895,42.680848,-84.229013,2
Burgdorf's Winery,,,5635 Shoeman Road,Haslett,48840,42.748022,-84.347683,2
New Holland Brewing,,,66 East 8th Street ,Holland,49423,42.790105,-86.104115,2
"Village Winery (Romeo, Michigan)",,,134 W. St. Clair Street,Romeo,48065,42.802616,-83.015807,2
Seven Lakes Vineyard & Winery,,,1111 Tinsman Rd,Fenton,48430,42.819823,-83.683478,2
Blake's Hard Cider Co.,,,17985 Armada Center Road,Armada,48005,42.849425,-82.951249,2
Hudsonville Winery,,,3768 Chicago Drive,Hudsonville,49426,42.862155,-85.875762,2
Cascade Winery,,,4665 Broadmoor,Grand Rapids,49512,42.880283,-85.562714,2
Founders Brewing Co.,,,235 Grandville Ave. SW ,Grand Rapids,49503,42.951191,-85.677308,2
Uncle John's Fruit House Winery,,,8614 North US 127,St Johns,48879,43.024263,-84.563153,2
Robinette's Apple Haus & Winery,,,3142 4 Mile Road NE,Grand Rapids,49525,43.028064,-85.592066,2
Jk's Scrumpy,,,1431 Duffield Road,Flushing,48433,43.117745,-83.912346,2
McCallum's Orchard and Cider Mill,,,5697 Harris Road,Jeddo,48032,43.13786,-82.572538,2
Lake Effect Winery,,,5506 Harvey Street,Muskegon,49444,43.226913,-86.204331,2
Clay Avenue Cellars,,,611 Clay Avenue,Muskegon,49440,43.230944,-86.257975,2
Hometown Cellars,,, 108 East Center Street ,Ithaca,48847,43.291572,-84.605961,2
Blue Water Winery and Vineyard,,,7131 Holverson Road,Carsonville,48419,43.380036,-82.544411,2
Bardic Wells meadery,,,6737 50th Avenue,Montague,49437,43.524169,-86.43299,2
Oceana Winery & Vineyard,,,4980 S 52nd Ave,New Era,49446,43.555696,-86.427557,2
The Fox Barn Market & Winery,,,500 18th Avenue,Shelby,49455,43.692858,-86.515854,2
Jomagrha Vineyards and Winery,,,7365 S. Pere Marquette Hwy,Pentwater,49449,43.820675,-86.40138,2
Dizzy Daisy Winery,,,1288 Crown Road,Bad Axe,48413,43.88018,-83.033953,2
Modern Craft Winery,,,2760 E. Booth Road,Au Gres,48703,43.994505,-83.696915,2
Modern Craft Wine,,,211 E Huron Rd,Au Gres,48703,44.048068,-83.693181,2
Krolczyk Cellars,,,9042 N Darr Road,rand Rapids,49411,44.1198,-86.261616,2
Douglas Valley,,,5375 Douglas Valley Drive,Manistee,49660,44.318618,-86.224258,2
Valley Mist Vineyards,,,2742 Townline Road,Rose City,48654,44.414259,-84.126612,2
Rose Valley Winery,,,3039 Beechwood Road,Rose City,48654,44.42885,-84.106434,2
Northern Natural Winery,,,3020 Benzie Highway,Benzonia,49616,44.588097,-86.099457,2
St. Ambrose Cellars,,,971 South Pioneer Road,Beulah,49617,44.617024,-85.998387,2
Grand Traverse Distillery,,,781 Industrial Circle,Traverse City,49686,44.721971,-85.558589,2
Traverse City Whiskey Co.,,,201 E 14th Street,Traverse City,49684,44.751621,-85.620871,2
Left Foot Charley,,,806 Red Drive,Traverse City,49684,44.756288,-85.645216,2
Bonobo Winery,,,12011 Center Road,Traverse City,49686,44.861988,-85.520645,2
Chateau Grand Traverse,,,12239 Center Road,Traverse City,49686,44.864881,-85.519993,2
Bowers Harbor Vineyards,,,2896 Bowers Harbor Road,Traverse City,49686,44.892538,-85.515774,2
Cherry Republic,,,6026 S. Lake Street,Glen Arbor,49636,44.89709,-85.988986,2
Ethanology Spirits,,,127 Ames Street,Elk Rapids,49629,44.900801,-85.407788,2
Willow Vineyard,,,10702 E Hilltop Road,Suttons Bay,49682,44.906728,-85.644019,2
Ciccone Vineyard & Winery,,,10343 East Hilltop Road,Suttons Bay,49682,44.906851,-85.650249,2
Black Star Farms,,,10844 E. Revold Road,Suttons Bay,49682,44.935797,-85.633652,2
Brengman Brothers,,,9720 South Center Highway,Traverse City,49684,44.956255,-85.654222,2
Short's Brewing Company,,,121 N Bridge Street,Bellaire,49615,44.976194,-85.210166,2
Amoritas Vineyards,,,6701 E Duck Lake Rd. ,Lake Leelanau,49653,44.981221,-85.719484,2
Bee Well meadery,,,3533 S Derenzy Road,Bellaire,49615,44.98342,-85.193062,2
Raftshol Vineyards,,,1865 N West Bay Shore Drive,Suttons Bay,49682,45.008755,-85.619994,2
Skipping Stone Cellars,,,5046 S West Bay Shore Drive,Suttons Bay,49682,45.008995,-85.61918,2
Three Fires Wine,,,5046 S W Bay Shore Dr,Suttons Bay,49682,45.008995,-85.61918,2
Aurora Cellars,,,7788 East Horn Road,Lake Leelanau,49653,45.015071,-85.697599,2
Circa Estate Winery,,,7788 E. Horn Road,Lake Leelahau,49653,45.015747,-85.695334,2
Gill's Pier Vineyard & Winery,,,5620 N. Manitou Trail,Northport,49670,45.076453,-85.686702,2
Good Neighbor Organic,,,9825 Engles Road,Northport,49670,45.105938,-85.648234,2
Stoney Acres Winery (Michigan),,,4268 Truckey Road,Alpena,49707,45.109519,-83.477809,2
Motovino Cellars,,,110 Waukazoo Street,Northport,49670,45.129561,-85.616674,2
Petoskey Farms Vineyard & Winery,,,3720 Atkins Road,Petoskey,49770,45.363045,-84.942214,2
Mackinaw Trail Winery,,,3423 US 131,Petoskey,49770,45.365099,-84.970899,2
Crooked Vine Vineyard & Winert,,,8370 Lakeview Road,Alanson,49706,45.428461,-84.771505,2
Seasons of the North Winery,,,9090 Michigan 68 Highway,Alanson,49706,45.444071,-84.786698,2
Pleasantview Vineyards,,,6769 Pleasantview Road,Harbor Springs,49740,45.452986,-84.91485,2
Nicholas's Black River Vineyard & Winery,,,6209 N Black River Road,Cheboygan,49721,45.542848,-84.379316,2
Northern Sun Winery,,,983 10th Road,Bark River,49807,45.681293,-87.321758,2
Threefold Vine Winery,,,5856 Nn Road,Garden,49835,45.760039,-86.564344,2
Garden Bay Winery,,,15640 18th Road,Garden,49835,45.795125,-86.557855,2
Carrousel Winery,,,21 Trimountain Avenue,South Range,49963,47.069713,-88.640331,2
